website,locality,url,region,telephone,street,postal_code,company_name
,,"http://www.yellowpages.com/search?search_terms=real%20estate%20companies&geo_location_terms=Cincinnati,%20OH",,,,,
http://www.guardiansavingsbank.com,"Cincinnati, ","http://www.yellowpages.com/search?search_terms=real%20estate%20companies&geo_location_terms=Cincinnati,%20OH",OH,(513) 923-4100,5901 Colerain Ave,45239,Guardian Savings Bank
http://www.neyer1.com,"Cincinnati, ","http://www.yellowpages.com/search?search_terms=real%20estate%20companies&geo_location_terms=Cincinnati,%20OH",OH,(513) 563-7555,2135 Dana Ave Suite 200,45207,Neyer Properties
http://www.humbertmortgage.com,"Cincinnati, ","http://www.yellowpages.com/search?search_terms=real%20estate%20companies&geo_location_terms=Cincinnati,%20OH",OH,(513) 761-2251,1250 Springfield Pike,45215,Humbert Mortgage Inc
http://www.cincinnatussl.com,"Cincinnati, ","http://www.yellowpages.com/search?search_terms=real%20estate%20companies&geo_location_terms=Cincinnati,%20OH",OH,(513) 661-6903,3300 Harrison Ave,45211,Cincinnatus Svgs & Loan
http://www.gccu.org,"Cincinnati, ","http://www.yellowpages.com/search?search_terms=real%20estate%20companies&geo_location_terms=Cincinnati,%20OH",OH,(513) 559-1234,7221 Montgomery Rd,45236,Greater Cincinnati Credit Union
http://www.barnhornappraisalservices.com,"Cincinnati, ","http://www.yellowpages.com/search?search_terms=real%20estate%20companies&geo_location_terms=Cincinnati,%20OH",OH,(513) 948-0948,31 E Galbraith Rd,45216,Barnhorn Real Estate Services
http://www.advantagepropertyoh.com/,"Cincinnati, ","http://www.yellowpages.com/search?search_terms=real%20estate%20companies&geo_location_terms=Cincinnati,%20OH",OH,(513) 984-4114,7712 Blue Ash Rd,45236,Advantage Property Management Inc
http://www.cbcreliantrealty.com,"Cincinnati, ","http://www.yellowpages.com/search?search_terms=real%20estate%20companies&geo_location_terms=Cincinnati,%20OH",OH,(513) 241-8725,1125 W 8th St Suite 200,45203,Coldwell Banker Commercial Reliant Realty
http://www.buckeyelandtitle.com,"Cincinnati, ","http://www.yellowpages.com/search?search_terms=real%20estate%20companies&geo_location_terms=Cincinnati,%20OH",OH,(513) 347-2860,4931 Delhi Ave,45238,Buckeye Land Title Co
https://bankwithpark.com,"Cincinnati, ","http://www.yellowpages.com/search?search_terms=real%20estate%20companies&geo_location_terms=Cincinnati,%20OH",OH,(888) 817-1985,1075 Nimitzview Dr,45230,Park National Bank SW
https://bankwithpark.com,"Cincinnati, ","http://www.yellowpages.com/search?search_terms=real%20estate%20companies&geo_location_terms=Cincinnati,%20OH",OH,(888) 506-5185,4550 Eastgate Blvd,45245,Park National Bank SW
http://www.jordan-realtors.com,"Cincinnati, ","http://www.yellowpages.com/search?search_terms=real%20estate%20companies&geo_location_terms=Cincinnati,%20OH",OH,(513) 791-0281,7658 Montgomery Rd,45236,Jordan Realtors
https://www.thirdfederal.com/,"Cincinnati, ","http://www.yellowpages.com/search?search_terms=real%20estate%20companies&geo_location_terms=Cincinnati,%20OH",OH,(513) 458-2300,"2692 Madison Rd , Ste A-3",45208,Third Federal Savings & Loan
https://www.thirdfederal.com/,"Cincinnati, ","http://www.yellowpages.com/search?search_terms=real%20estate%20companies&geo_location_terms=Cincinnati,%20OH",OH,(513) 598-7300,6355 Harrison Ave,45247,Third Federal Savings & Loan
https://www.thirdfederal.com/,"Cincinnati, ","http://www.yellowpages.com/search?search_terms=real%20estate%20companies&geo_location_terms=Cincinnati,%20OH",OH,(513) 605-5300,"11928 Montgomery Rd , Ste 1",45249,Third Federal Savings & Loan
http://www.cinfed.org,"Cincinnati, ","http://www.yellowpages.com/search?search_terms=real%20estate%20companies&geo_location_terms=Cincinnati,%20OH",OH,(513) 333-3800,550 Main St,45202,Cinfed Credit Union
http://i74officepark.com,"Cincinnati, ","http://www.yellowpages.com/search?search_terms=real%20estate%20companies&geo_location_terms=Cincinnati,%20OH",OH,(513) 661-9630,2300 Montana Ave,45211,I-74 Office Park
http://i74officepark.com,"Cincinnati, ","http://www.yellowpages.com/search?search_terms=real%20estate%20companies&geo_location_terms=Cincinnati,%20OH",OH,(513) 821-3335,115 W Benson St,45215,Valley Central Bank
http://www.ohioreverse.com,"Cincinnati, ","http://www.yellowpages.com/search?search_terms=real%20estate%20companies&geo_location_terms=Cincinnati,%20OH",OH,(513) 808-9423,8595 Beechmont Ave Suite 310,45255,Ohio Reverse Mortgage | The Money Store
http://local.yp.com/Listings/Details.aspx?NUM=a%3a13296873%3a13%3a4859924%3a14%3a0%3a7,"Cincinnati, ","http://www.yellowpages.com/search?search_terms=real%20estate%20companies&geo_location_terms=Cincinnati,%20OH",OH,(866) 480-8596,5601 Viewpointe Dr,45213,Hilltop Apartments
http://local.yp.com/Listings/Details.aspx?NUM=a%3a13300088%3a13%3a4859924%3a14%3a0%3a7,"Cincinnati, ","http://www.yellowpages.com/search?search_terms=real%20estate%20companies&geo_location_terms=Cincinnati,%20OH",OH,(877) 348-3568,7401 Pondview Pl,45244,Ivy Hills Place
http://local.yp.com/Listings/Details.aspx?NUM=a%3a13299814%3a13%3a4859924%3a14%3a0%3a7,"Cincinnati, ","http://www.yellowpages.com/search?search_terms=real%20estate%20companies&geo_location_terms=Cincinnati,%20OH",OH,(877) 371-4787,5065 Hawaiian Ter,45223,Forest Ridge
http://local.yp.com/Listings/Details.aspx?NUM=a%3a13297918%3a13%3a4859924%3a14%3a0%3a7,"Cincinnati, ","http://www.yellowpages.com/search?search_terms=real%20estate%20companies&geo_location_terms=Cincinnati,%20OH",OH,(877) 875-5405,2891 Fourtowers Dr,45238,Ferguson Woods Apartments
http://local.yp.com/Listings/Details.aspx?NUM=a%3a13290257%3a13%3a4859924%3a14%3a0%3a7,"Cincinnati, ","http://www.yellowpages.com/search?search_terms=real%20estate%20companies&geo_location_terms=Cincinnati,%20OH",OH,(877) 216-9422,2928 Colonial Ridge Ct,45212,Colonial Ridge Apts
http://local.yp.com/Listings/Details.aspx?NUM=a%3a13299610%3a13%3a4859924%3a14%3a0%3a7,"Cincinnati, ","http://www.yellowpages.com/search?search_terms=real%20estate%20companies&geo_location_terms=Cincinnati,%20OH",OH,(866) 277-9204,2101 Grandin Rd,45208,Grandin House Apartments
http://local.yp.com/Listings/Details.aspx?NUM=a%3a13299824%3a13%3a4859924%3a14%3a0%3a7,"Cincinnati, ","http://www.yellowpages.com/search?search_terms=real%20estate%20companies&geo_location_terms=Cincinnati,%20OH",OH,(877) 328-4129,5349 Tompkins Ave,45227,Centennial Woods Apartments
http://local.yp.com/Listings/Details.aspx?NUM=a%3a13297592%3a13%3a4859924%3a14%3a0%3a7,"Cincinnati, ","http://www.yellowpages.com/search?search_terms=real%20estate%20companies&geo_location_terms=Cincinnati,%20OH",OH,(877) 216-2397,8240 W Galbraith Pointe Ln,45231,Galbraith Pointe Apartments
http://local.yp.com/Listings/Details.aspx?NUM=a%3a13300089%3a13%3a4859924%3a14%3a0%3a7,"Cincinnati, ","http://www.yellowpages.com/search?search_terms=real%20estate%20companies&geo_location_terms=Cincinnati,%20OH",OH,(855) 888-7972,6246 Corbly Rd,45230,Whispering Pines Apts
http://local.yp.com/Listings/Details.aspx?NUM=a%3a13299795%3a13%3a4859924%3a14%3a0%3a7,"Cincinnati, ","http://www.yellowpages.com/search?search_terms=real%20estate%20companies&geo_location_terms=Cincinnati,%20OH",OH,(877) 434-0291,5384 Bahama Ter,45223,Colerain Towers Apartments
http://local.yp.com/Listings/Details.aspx?NUM=a%3a13288765%3a13%3a4859924%3a14%3a0%3a7,"Cincinnati, ","http://www.yellowpages.com/search?search_terms=real%20estate%20companies&geo_location_terms=Cincinnati,%20OH",OH,(877) 867-6303,2682 Lafeuille Cir,45211,LaFeuille Apts
http://www.sibcycline.com,"Cincinnati, ","http://www.yellowpages.com/search?search_terms=real%20estate%20companies&geo_location_terms=Cincinnati,%20OH",OH,(513) 985-4010,8044 Montgomery Rd,45236,LaFeuille Apts
http://www.shortsalehomes.com/,"Cincinnati, ","http://www.yellowpages.com/search?search_terms=real%20estate%20companies&geo_location_terms=Cincinnati,%20OH",OH,(844) 656-2420,8044 Montgomery Rd,45236,LaFeuille Apts
http://www.emeraldcityhomesales.com/,"Cincinnati, ","http://www.yellowpages.com/search?search_terms=real%20estate%20companies&geo_location_terms=Cincinnati,%20OH",OH,(866) 570-5998,8044 Montgomery Rd,45236,LaFeuille Apts
http://www.mydiscountproperty.com/,"Cincinnati, ","http://www.yellowpages.com/search?search_terms=real%20estate%20companies&geo_location_terms=Cincinnati,%20OH",OH,(888) 560-8701,8044 Montgomery Rd,45236,LaFeuille Apts
http://www.jordan-realtors.com,"Cincinnati, ","http://www.yellowpages.com/search?search_terms=real%20estate%20companies&geo_location_terms=Cincinnati,%20OH",OH,(513) 791-0281,7658 Montgomery Rd,45236,LaFeuille Apts
http://www.jordan-realtors.com,"Cincinnati, ","http://www.yellowpages.com/search?search_terms=real%20estate%20companies&geo_location_terms=Cincinnati,%20OH",OH,(513) 791-0281,7658 Montgomery Rd,45236,LaFeuille Apts
http://local.yp.com/Listings/Details.aspx?NUM=a%3a13290019%3a13%3a4859924%3a14%3a0%3a7,"Cincinnati, ",http://www.yellowpages.com/search?search_terms=real%20estate%20companies&geo_location_terms=Cincinnati%2C%20OH&page=2,OH,(877) 847-5371,100 Southern Trce #D,45255,Timber Trails
http://local.yp.com/Listings/Details.aspx?NUM=a%3a13300064%3a13%3a4859924%3a14%3a0%3a7,"Cincinnati, ",http://www.yellowpages.com/search?search_terms=real%20estate%20companies&geo_location_terms=Cincinnati%2C%20OH&page=2,OH,(877) 394-2180,4500 Long Acres Dr,45245,Long Acres Apartments
http://local.yp.com/Listings/Details.aspx?NUM=a%3a13289531%3a13%3a4859924%3a14%3a0%3a7,"Cincinnati, ",http://www.yellowpages.com/search?search_terms=real%20estate%20companies&geo_location_terms=Cincinnati%2C%20OH&page=2,OH,(877) 487-3813,5751 Signal Pointe Dr,45247,Pinnacle Pointe
http://local.yp.com/Listings/Details.aspx?NUM=a%3a13290019%3a13%3a4859924%3a14%3a0%3a7,"Cincinnati, ",http://www.yellowpages.com/search?search_terms=real%20estate%20companies&geo_location_terms=Cincinnati%2C%20OH&page=2,OH,(877) 847-5371,100 Southern Trce #D,45255,Timber Trails
http://www.sibcycline.com,"Cincinnati, ",http://www.yellowpages.com/search?search_terms=real%20estate%20companies&geo_location_terms=Cincinnati%2C%20OH&page=2,OH,(513) 985-4010,8044 Montgomery Rd,45236,Sibcy Cline Realtors
http://local.yp.com/Listings/Details.aspx?NUM=a%3a13302503%3a13%3a4859924%3a14%3a0%3a7,"Cincinnati, ",http://www.yellowpages.com/search?search_terms=real%20estate%20companies&geo_location_terms=Cincinnati%2C%20OH&page=2,OH,(877) 228-2210,111 Garfield Pl,45202,Garfield Tower
http://local.yp.com/Listings/Details.aspx?NUM=a%3a13303394%3a13%3a4859924%3a14%3a0%3a7,"Cincinnati, ",http://www.yellowpages.com/search?search_terms=real%20estate%20companies&geo_location_terms=Cincinnati%2C%20OH&page=2,OH,(877) 243-2102,2227 Westwood Northern Blvd,45225,Brookwood Apartments
http://local.yp.com/Listings/Details.aspx?NUM=a%3a13296427%3a13%3a4859924%3a14%3a0%3a7,"Cincinnati, ",http://www.yellowpages.com/search?search_terms=real%20estate%20companies&geo_location_terms=Cincinnati%2C%20OH&page=2,OH,(877) 329-2124,2596 Madison Rd,45208,Rookwood Court
http://local.yp.com/Listings/Details.aspx?NUM=a%3a13294830%3a13%3a4859924%3a14%3a0%3a7,"Cincinnati, ",http://www.yellowpages.com/search?search_terms=real%20estate%20companies&geo_location_terms=Cincinnati%2C%20OH&page=2,OH,(877) 392-1903,"812, 814, 820 Clough Pike",45245,Maplewood
http://local.yp.com/Listings/Details.aspx?NUM=a%3a13289530%3a13%3a4859924%3a14%3a0%3a7,"Cincinnati, ",http://www.yellowpages.com/search?search_terms=real%20estate%20companies&geo_location_terms=Cincinnati%2C%20OH&page=2,OH,(877) 205-6127,4510 Colerain Ave,45223,Airy Trails Apts
http://local.yp.com/Listings/Details.aspx?NUM=a%3a13295287%3a13%3a4859924%3a14%3a0%3a7,"Cincinnati, ",http://www.yellowpages.com/search?search_terms=real%20estate%20companies&geo_location_terms=Cincinnati%2C%20OH&page=2,OH,(877) 328-9919,5019-5021 Cooper Rd,45242,Cooper Plaza Apartments
http://local.yp.com/Listings/Details.aspx?NUM=a%3a13288636%3a13%3a4859924%3a14%3a0%3a7,"Cincinnati, ",http://www.yellowpages.com/search?search_terms=real%20estate%20companies&geo_location_terms=Cincinnati%2C%20OH&page=2,OH,(877) 524-6007,8204 Wooster Pike,45227,Mariemont Trails Apartments
http://www.comey.com,"Cincinnati, ",http://www.yellowpages.com/search?search_terms=real%20estate%20companies&geo_location_terms=Cincinnati%2C%20OH&page=2,OH,(513) 231-2800,7333 Beechmont Ave,45230,Comey & Shepherd Realtors-Li
http://gowestech.com,"Cincinnati, ",http://www.yellowpages.com/search?search_terms=real%20estate%20companies&geo_location_terms=Cincinnati%2C%20OH&page=2,OH,(513) 385-5100,7601 Cheviot Rd,45247,Hoeting Realtors
http://www.remax.com,"Cincinnati, ",http://www.yellowpages.com/search?search_terms=real%20estate%20companies&geo_location_terms=Cincinnati%2C%20OH&page=2,OH,(513) 984-3899,9122 Montgomery Rd Suite 12,45242,Remax-Barry Roth
http://www.remax.com,"Cincinnati, ",http://www.yellowpages.com/search?search_terms=real%20estate%20companies&geo_location_terms=Cincinnati%2C%20OH&page=2,OH,(513) 741-9719,3672 Springdale Rd,45251,Vilas Realtors Inc
http://www.hoeting.com,"Cincinnati, ",http://www.yellowpages.com/search?search_terms=real%20estate%20companies&geo_location_terms=Cincinnati%2C%20OH&page=2,OH,(513) 451-4800,3515 Werk Rd,45248,Hoeting Realtors
http://www.hoeting.com,"Cincinnati, ",http://www.yellowpages.com/search?search_terms=real%20estate%20companies&geo_location_terms=Cincinnati%2C%20OH&page=2,OH,(513) 561-5800,6901 Wooster Pike,45227,"Switzer, Diane"
http://sellmyhousefastcincinnati.com,"Cincinnati, ",http://www.yellowpages.com/search?search_terms=real%20estate%20companies&geo_location_terms=Cincinnati%2C%20OH&page=2,OH,(513) 445-2275,2021 Auburn Ave,45219,Sellmyhousefastcincinnati.com
http://regoddess.com,"Cincinnati, ",http://www.yellowpages.com/search?search_terms=real%20estate%20companies&geo_location_terms=Cincinnati%2C%20OH&page=2,OH,(513) 471-0141,3707 Warsaw Ave,45205,Proffitt Real Estate
http://regoddess.com,"Cincinnati, ",http://www.yellowpages.com/search?search_terms=real%20estate%20companies&geo_location_terms=Cincinnati%2C%20OH&page=2,OH,(513) 245-1266,5709 Cheviot Rd,45247,Bruce Ibold & Associates
http://www.homeandhuts.com,"Cincinnati, ",http://www.yellowpages.com/search?search_terms=real%20estate%20companies&geo_location_terms=Cincinnati%2C%20OH&page=2,OH,(513) 236-5135,3545 Blue Rock Rd,45239,Re-Max On The Move
http://www.homeandhuts.com,"Cincinnati, ",http://www.yellowpages.com/search?search_terms=real%20estate%20companies&geo_location_terms=Cincinnati%2C%20OH&page=2,OH,(513) 471-4298,542 Davenport Ave Apt B,45204,Geo L Meinhardt Real EST
http://www.kw.com,"Cincinnati, ",http://www.yellowpages.com/search?search_terms=real%20estate%20companies&geo_location_terms=Cincinnati%2C%20OH&page=2,OH,(513) 766-9200,3505 Columbia Pkwy # 125,45226,Keller Williams Realty
http://www.prucomrecin.com,"Cincinnati, ",http://www.yellowpages.com/search?search_terms=real%20estate%20companies&geo_location_terms=Cincinnati%2C%20OH&page=2,OH,(513) 772-7781,11800 Conrey Rd,45249,Prudential Real Estate
http://www.alegnarealty.com,"Cincinnati, ",http://www.yellowpages.com/search?search_terms=real%20estate%20companies&geo_location_terms=Cincinnati%2C%20OH&page=2,OH,(513) 843-6568,4528 Aicholtz Rd,45245,Alegna Realty
http://www.amybsells.com,"Cincinnati, ",http://www.yellowpages.com/search?search_terms=real%20estate%20companies&geo_location_terms=Cincinnati%2C%20OH&page=2,OH,(513) 372-6500,8276 Beechmont Ave,45255,Keller Williams Realty
http://www.barnesrealestategroup.com,"Cincinnati, ",http://www.yellowpages.com/search?search_terms=real%20estate%20companies&geo_location_terms=Cincinnati%2C%20OH&page=2,OH,(513) 527-4660,6004 Madison Rd,45227,Barnes Real Estate Group
http://www.lhth.org,"Cincinnati, ",http://www.yellowpages.com/search?search_terms=real%20estate%20companies&geo_location_terms=Cincinnati%2C%20OH&page=2,OH,(513) 598-6333,3765 Ebenezer Rd,45248,Living Hope
http://www.grandinproperties.com,"Cincinnati, ",http://www.yellowpages.com/search?search_terms=real%20estate%20companies&geo_location_terms=Cincinnati%2C%20OH&page=2,OH,(513) 871-7110,1995 Madison Rd,45208,Grandin Properties
http://www.sibcycline.com,"Cincinnati, ",http://www.yellowpages.com/search?search_terms=real%20estate%20companies&geo_location_terms=Cincinnati%2C%20OH&page=2,OH,(513) 985-4010,8044 Montgomery Rd,45236,Grandin Properties
http://www.sibcycline.com,"Cincinnati, ",http://www.yellowpages.com/search?search_terms=real%20estate%20companies&geo_location_terms=Cincinnati%2C%20OH&page=2,OH,(513) 985-4010,8044 Montgomery Rd,45236,Grandin Properties
http://www.grandinproperties.com,"Cincinnati, ",http://www.yellowpages.com/search?search_terms=real%20estate%20companies&geo_location_terms=Cincinnati%2C%20OH&page=3,OH,(513) 871-7110,1995 Madison Rd,45208,Grandin Properties
http://www.acincyhome.com,"Cincinnati, ",http://www.yellowpages.com/search?search_terms=real%20estate%20companies&geo_location_terms=Cincinnati%2C%20OH&page=3,OH,(513) 201-7671,9560 Montgomery Rd,45242,"Al Rosser, Real Estate Agent with Achieve Realty"
http://www.naproperties.com,"Cincinnati, ",http://www.yellowpages.com/search?search_terms=real%20estate%20companies&geo_location_terms=Cincinnati%2C%20OH&page=3,OH,(513) 721-2744,212 E 3rd St Ste 300,45202,North American Properties
http://www.remax.com,"Cincinnati, ",http://www.yellowpages.com/search?search_terms=real%20estate%20companies&geo_location_terms=Cincinnati%2C%20OH&page=3,OH,(513) 369-0000,229 W 7th St,45202,Re/Max Unlimited
http://www.star-one.com,"Cincinnati, ",http://www.yellowpages.com/search?search_terms=real%20estate%20companies&geo_location_terms=Cincinnati%2C%20OH&page=3,OH,(513) 791-2255,9722 Montgomery Rd,45242,Star One Realtors
http://www.star-one.com,"Cincinnati, ",http://www.yellowpages.com/search?search_terms=real%20estate%20companies&geo_location_terms=Cincinnati%2C%20OH&page=3,OH,(513) 236-5135,3240 N Bend Rd,45239,David E Biederman
http://www.remax.com,"Cincinnati, ",http://www.yellowpages.com/search?search_terms=real%20estate%20companies&geo_location_terms=Cincinnati%2C%20OH&page=3,OH,(513) 574-0600,5968B Bridgetown Rd,45248,Remax
http://www.hoeting.com,"Cincinnati, ",http://www.yellowpages.com/search?search_terms=real%20estate%20companies&geo_location_terms=Cincinnati%2C%20OH&page=3,OH,(513) 451-4800,6048 Bridgetown Rd,45248,Hoeting Realtors
http://anderson-realestate.com,"Cincinnati, ",http://www.yellowpages.com/search?search_terms=real%20estate%20companies&geo_location_terms=Cincinnati%2C%20OH&page=3,OH,(513) 241-5800,3805 Edwards Rd Ste 700,45209,Virginia Wngs Nrfolk LP
http://www.remax.com,"Cincinnati, ",http://www.yellowpages.com/search?search_terms=real%20estate%20companies&geo_location_terms=Cincinnati%2C%20OH&page=3,OH,(513) 533-4111,2735 Madison Rd,45209,Re/Max
http://www.remax.com,"Cincinnati, ",http://www.yellowpages.com/search?search_terms=real%20estate%20companies&geo_location_terms=Cincinnati%2C%20OH&page=3,OH,(513) 651-5535,9 Arcadia Pl,45208,"Ledford, Nancy"
http://www.crecgc.org,"Cincinnati, ",http://www.yellowpages.com/search?search_terms=real%20estate%20companies&geo_location_terms=Cincinnati%2C%20OH&page=3,OH,(513) 651-5535,9 Arcadia Pl,45208,Heldman Real Estate Brokerage
http://www.remax.com,"Cincinnati, ",http://www.yellowpages.com/search?search_terms=real%20estate%20companies&geo_location_terms=Cincinnati%2C%20OH&page=3,OH,(513) 421-0345,1077 Celestial St,45202,Re/Max Affiliates
http://www.remax.com,"Cincinnati, ",http://www.yellowpages.com/search?search_terms=real%20estate%20companies&geo_location_terms=Cincinnati%2C%20OH&page=3,OH,(513) 561-5773,3908 Miami Rd,45227,"Strauss, Gerri S"
http://www.remax.com,"Cincinnati, ",http://www.yellowpages.com/search?search_terms=real%20estate%20companies&geo_location_terms=Cincinnati%2C%20OH&page=3,OH,(513) 236-5135,3240 N Bend Rd,45239,Re/Max Unlimited
http://www.core-1.com,"Cincinnati, ",http://www.yellowpages.com/search?search_terms=real%20estate%20companies&geo_location_terms=Cincinnati%2C%20OH&page=3,OH,(513) 731-1771,7795 5 Mile Rd,45230,Core Resources Inc
http://www.remax.com,"Cincinnati, ",http://www.yellowpages.com/search?search_terms=real%20estate%20companies&geo_location_terms=Cincinnati%2C%20OH&page=3,OH,(513) 231-0200,7794 5 Mile Rd Ste 100,45230,Re/Max Results
http://www.starone.com,"Cincinnati, ",http://www.yellowpages.com/search?search_terms=real%20estate%20companies&geo_location_terms=Cincinnati%2C%20OH&page=3,OH,(513) 247-6900,8170 Corporate Park Dr,45242,Star One Realtors
http://www.remax.com,"Cincinnati, ",http://www.yellowpages.com/search?search_terms=real%20estate%20companies&geo_location_terms=Cincinnati%2C%20OH&page=3,OH,(513) 766-0804,7870 E Kemper Rd,45249,Re/Max Team Thompson
http://www.cbws.com/real_estate_office/33/ohio/cincinnati/hyde-park.aspx?utm_campaign=local-ga&utm_source=ga&utm_medium=local&utm_content=website,"Cincinnati, ",http://www.yellowpages.com/search?search_terms=real%20estate%20companies&geo_location_terms=Cincinnati%2C%20OH&page=3,OH,(513) 321-9944,2721 Erie Ave,45208,"Hinkley, Michael"
http://www.century21.com,"Cincinnati, ",http://www.yellowpages.com/search?search_terms=real%20estate%20companies&geo_location_terms=Cincinnati%2C%20OH&page=3,OH,(513) 874-1264,2031 Madison Rd,45208,Century 21
http://sandybakst.com,"Cincinnati, ",http://www.yellowpages.com/search?search_terms=real%20estate%20companies&geo_location_terms=Cincinnati%2C%20OH&page=3,OH,(513) 315-9295,3522 Erie Ave,45208,"Bakst, Sandy"
http://sandybakst.com,"Cincinnati, ",http://www.yellowpages.com/search?search_terms=real%20estate%20companies&geo_location_terms=Cincinnati%2C%20OH&page=3,OH,(513) 234-5089,3522 Erie Ave,45208,"Robinson-Wang, Joy"
http://remax.com,"Cincinnati, ",http://www.yellowpages.com/search?search_terms=real%20estate%20companies&geo_location_terms=Cincinnati%2C%20OH&page=3,OH,(513) 376-6679,108 W 9th St,45202,Re/Max Citywide
http://1sthousesearch.com,"Cincinnati, ",http://www.yellowpages.com/search?search_terms=real%20estate%20companies&geo_location_terms=Cincinnati%2C%20OH&page=3,OH,(513) 785-9994,9857 Montgomery Rd,45242,1st House Search
http://1sthousesearch.com,"Cincinnati, ",http://www.yellowpages.com/search?search_terms=real%20estate%20companies&geo_location_terms=Cincinnati%2C%20OH&page=3,OH,(513) 873-6116,8006 Beechmont Ave,45255,Era Real Solution
http://theclarusgroupllc.com,"Cincinnati, ",http://www.yellowpages.com/search?search_terms=real%20estate%20companies&geo_location_terms=Cincinnati%2C%20OH&page=3,OH,(513) 469-0800,8150 Corporate Park Dr # 100,45242,Hyundai U & I America Inc
http://exitcincy.com,"Cincinnati, ",http://www.yellowpages.com/search?search_terms=real%20estate%20companies&geo_location_terms=Cincinnati%2C%20OH&page=3,OH,(513) 871-3948,8176 Beechmont Ave,45255,Exit Realty First
http://huff.com,"Cincinnati, ",http://www.yellowpages.com/search?search_terms=real%20estate%20companies&geo_location_terms=Cincinnati%2C%20OH&page=3,OH,(513) 574-2300,6581 Harrison Ave,45247,Huff Realty Inc
http://huff.com,"Cincinnati, ",http://www.yellowpages.com/search?search_terms=real%20estate%20companies&geo_location_terms=Cincinnati%2C%20OH&page=3,OH,(513) 347-7900,6700 Ruwes Oak Dr,45248,Cagney Weisker & Associates Inc
http://www.sibcycline.com,"Cincinnati, ",http://www.yellowpages.com/search?search_terms=real%20estate%20companies&geo_location_terms=Cincinnati%2C%20OH&page=3,OH,(513) 985-4010,8044 Montgomery Rd,45236,Cagney Weisker & Associates Inc
http://www.sibcycline.com,"Cincinnati, ",http://www.yellowpages.com/search?search_terms=real%20estate%20companies&geo_location_terms=Cincinnati%2C%20OH&page=3,OH,(513) 985-4010,8044 Montgomery Rd,45236,Cagney Weisker & Associates Inc
http://www.chemed.com,"Cincinnati, ",http://www.yellowpages.com/search?search_terms=real%20estate%20companies&geo_location_terms=Cincinnati%2C%20OH&page=4,OH,(513) 762-6690,255 E 5th St Ste 2600,45202,Chemed Corp
http://cincinkyrealestate.com,"Cincinnati, ",http://www.yellowpages.com/search?search_terms=real%20estate%20companies&geo_location_terms=Cincinnati%2C%20OH&page=4,OH,(513) 560-8002,8176 Beechmont Ave,45255,Paul Sian - Real Estate Agent
http://sgarrett.comey.com,"Cincinnati, ",http://www.yellowpages.com/search?search_terms=real%20estate%20companies&geo_location_terms=Cincinnati%2C%20OH&page=4,OH,(513) 490-8343,7870 E. Kemper Rd. Suite 100,45249,Comey & Shepherd Realtors-Sheri Garrett Sales Associate
http://comey.com,"Cincinnati, ",http://www.yellowpages.com/search?search_terms=real%20estate%20companies&geo_location_terms=Cincinnati%2C%20OH&page=4,OH,(513) 891-4444,9857 Montgomery Rd,45242,Comey & Shepherd Inc
http://comey.com,"Cincinnati, ",http://www.yellowpages.com/search?search_terms=real%20estate%20companies&geo_location_terms=Cincinnati%2C%20OH&page=4,OH,(513) 407-3137,7265 Kenwood Rd Ste 110,45236,Cincinnati Real Estate Investors
http://www.eaglerealtygroup.com,"Cincinnati, ",http://www.yellowpages.com/search?search_terms=real%20estate%20companies&geo_location_terms=Cincinnati%2C%20OH&page=4,OH,(513) 361-7700,421 E 4th St,45202,Eagle Realty Group
http://www.thewalnutgroup.com/biographies.html,"Cincinnati, ",http://www.yellowpages.com/search?search_terms=real%20estate%20companies&geo_location_terms=Cincinnati%2C%20OH&page=4,OH,(513) 241-1200,312 Walnut St Ste 1110,45202,Frederic H Mayerson Group
http://saintsrealty.com,"Cincinnati, ",http://www.yellowpages.com/search?search_terms=real%20estate%20companies&geo_location_terms=Cincinnati%2C%20OH&page=4,OH,(513) 271-7600,7710 Shawnee Run Rd Ste U1,45243,Gershuny Stanley R & Associates
http://saintsrealty.com,"Cincinnati, ",http://www.yellowpages.com/search?search_terms=real%20estate%20companies&geo_location_terms=Cincinnati%2C%20OH&page=4,OH,(513) 723-0989,1104 Saint Gregory St,45202,Greg Vollman Investment Realty
http://atriumtwo.com,"Cincinnati, ",http://www.yellowpages.com/search?search_terms=real%20estate%20companies&geo_location_terms=Cincinnati%2C%20OH&page=4,OH,(513) 381-0372,221 E 4th St # 2315,45202,Cushman & Wakefield
http://westshell.com,"Cincinnati, ",http://www.yellowpages.com/search?search_terms=real%20estate%20companies&geo_location_terms=Cincinnati%2C%20OH&page=4,OH,(513) 721-4200,425 Walnut St # 1200,45202,John Real Herrmann EST
http://bluerock.com,"Cincinnati, ",http://www.yellowpages.com/search?search_terms=real%20estate%20companies&geo_location_terms=Cincinnati%2C%20OH&page=4,OH,(513) 385-2424,3554 Blue Rock Rd,45239,Blue Rock
http://bluerock.com,"Cincinnati, ",http://www.yellowpages.com/search?search_terms=real%20estate%20companies&geo_location_terms=Cincinnati%2C%20OH&page=4,OH,(513) 241-1911,7778 E Kemper Rd,45249,Stern Hendy Properties Inc
http://c-c-r.com,"Cincinnati, ",http://www.yellowpages.com/search?search_terms=real%20estate%20companies&geo_location_terms=Cincinnati%2C%20OH&page=4,OH,(513) 241-2300,625 Eden Park Dr # 750,45202,Cincinnati Commercial Realtors
http://schneiderandassociatesappraisal.com,"Cincinnati, ",http://www.yellowpages.com/search?search_terms=real%20estate%20companies&geo_location_terms=Cincinnati%2C%20OH&page=4,OH,(513) 834-5861,7781 Cooper Rd,45242,Schneider & Associates Real Estate Valuati
http://schneiderandassociatesappraisal.com,"Cincinnati, ",http://www.yellowpages.com/search?search_terms=real%20estate%20companies&geo_location_terms=Cincinnati%2C%20OH&page=4,OH,(513) 221-2575,3750 Reading Rd,45229,Georgia Morris Realty
http://schneiderandassociatesappraisal.com,"Cincinnati, ",http://www.yellowpages.com/search?search_terms=real%20estate%20companies&geo_location_terms=Cincinnati%2C%20OH&page=4,OH,(513) 979-2600,2716 Observatory Ave,45208,Mack Barbara & Ted Real EST
http://www.riverwalkcincinnati.com,"Cincinnati, ",http://www.yellowpages.com/search?search_terms=real%20estate%20companies&geo_location_terms=Cincinnati%2C%20OH&page=4,OH,(513) 961-2363,2260 Riverside Dr,45202,Riverwalk At Collins
http://www.remax.com,"Cincinnati, ",http://www.yellowpages.com/search?search_terms=real%20estate%20companies&geo_location_terms=Cincinnati%2C%20OH&page=4,OH,(513) 421-0345,3171 Golden Ave,45226,Re Max
http://colliers.com,"Cincinnati, ",http://www.yellowpages.com/search?search_terms=real%20estate%20companies&geo_location_terms=Cincinnati%2C%20OH&page=4,OH,(513) 721-0058,655 Eden Park Dr,45202,Colliers International
http://colliers.com,"Cincinnati, ",http://www.yellowpages.com/search?search_terms=real%20estate%20companies&geo_location_terms=Cincinnati%2C%20OH&page=4,OH,(513) 561-7333,3814 West St # 100,45227,Mari Mont Lifestyle Sales Ctr
http://mycityliving.com,"Cincinnati, ",http://www.yellowpages.com/search?search_terms=real%20estate%20companies&geo_location_terms=Cincinnati%2C%20OH&page=4,OH,(513) 241-3400,1440 Main St,45202,Comey & Shepherd Realtors
http://www.fletcherrealtyinc.com,"Cincinnati, ",http://www.yellowpages.com/search?search_terms=real%20estate%20companies&geo_location_terms=Cincinnati%2C%20OH&page=4,OH,(513) 542-5877,1624 Bruce Ave,45223,Fletcher Realty Inc
http://www.fletcherrealtyinc.com,"Cincinnati, ",http://www.yellowpages.com/search?search_terms=real%20estate%20companies&geo_location_terms=Cincinnati%2C%20OH&page=4,OH,(513) 721-4200,425 Walnut St Ste 1200,45202,William Real Keefer EST
http://www.fletcherrealtyinc.com,"Cincinnati, ",http://www.yellowpages.com/search?search_terms=real%20estate%20companies&geo_location_terms=Cincinnati%2C%20OH&page=4,OH,(513) 241-2300,1 E 4th St,45202,Si Real Pitstick EST
http://www.fletcherrealtyinc.com,"Cincinnati, ",http://www.yellowpages.com/search?search_terms=real%20estate%20companies&geo_location_terms=Cincinnati%2C%20OH&page=4,OH,(513) 241-2300,1 E 4th St,45202,Neal Real Sundermann EST
http://www.fletcherrealtyinc.com,"Cincinnati, ",http://www.yellowpages.com/search?search_terms=real%20estate%20companies&geo_location_terms=Cincinnati%2C%20OH&page=4,OH,(513) 241-2300,1 E 4th St,45202,Hach Wayne F Real Est
http://www.crecgc.org,"Cincinnati, ",http://www.yellowpages.com/search?search_terms=real%20estate%20companies&geo_location_terms=Cincinnati%2C%20OH&page=4,OH,(513) 241-9090,435 Elm St Ste 325,45202,Tristar Commercial Group Inc
http://www.crecgc.org,"Cincinnati, ",http://www.yellowpages.com/search?search_terms=real%20estate%20companies&geo_location_terms=Cincinnati%2C%20OH&page=4,OH,(513) 834-5944,7710 Shawnee Run Rd,45243,Debra Right Realtor
http://homeexpertsrealty.net,"Cincinnati, ",http://www.yellowpages.com/search?search_terms=real%20estate%20companies&geo_location_terms=Cincinnati%2C%20OH&page=4,OH,(513) 561-5222,6934 Miami Ave,45243,Home Experts Realty
http://www.sibcycline.com,"Cincinnati, ",http://www.yellowpages.com/search?search_terms=real%20estate%20companies&geo_location_terms=Cincinnati%2C%20OH&page=4,OH,(513) 985-4010,8044 Montgomery Rd,45236,Home Experts Realty
http://www.sibcycline.com,"Cincinnati, ",http://www.yellowpages.com/search?search_terms=real%20estate%20companies&geo_location_terms=Cincinnati%2C%20OH&page=4,OH,(513) 985-4010,8044 Montgomery Rd,45236,Home Experts Realty
,"Cincinnati, ",http://www.yellowpages.com/search?search_terms=real%20estate%20companies&geo_location_terms=Cincinnati%2C%20OH&page=5,OH,(513) 407-8951,1172 W Galbraith Rd,45231,Capitol Hill Realty
http://www.graphicartsproduction.com,"Cincinnati, ",http://www.yellowpages.com/search?search_terms=real%20estate%20companies&geo_location_terms=Cincinnati%2C%20OH&page=5,OH,(513) 891-7618,8118 Montgomery Rd,45236,Mariemont Corp
http://www.sibcycline.com,"Cincinnati, ",http://www.yellowpages.com/search?search_terms=real%20estate%20companies&geo_location_terms=Cincinnati%2C%20OH&page=5,OH,(513) 931-7700,9250 Winton Rd,45231,M J Fries Real EST
http://www.sibcycline.com,"Cincinnati, ",http://www.yellowpages.com/search?search_terms=real%20estate%20companies&geo_location_terms=Cincinnati%2C%20OH&page=5,OH,(513) 251-4115,3051 Westbrook Dr,45238,Carol Jones Realty
http://www.sibcycline.com,"Cincinnati, ",http://www.yellowpages.com/search?search_terms=real%20estate%20companies&geo_location_terms=Cincinnati%2C%20OH&page=5,OH,(513) 771-9393,11562 Chester Rd,45246,Sturges & Leatherman Rltrs
http://www.sibcycline.com,"Cincinnati, ",http://www.yellowpages.com/search?search_terms=real%20estate%20companies&geo_location_terms=Cincinnati%2C%20OH&page=5,OH,(513) 385-9000,6380 Cheviot Rd Ste 1,45247,Mutual Realtors
http://www.sibcycline.com,"Cincinnati, ",http://www.yellowpages.com/search?search_terms=real%20estate%20companies&geo_location_terms=Cincinnati%2C%20OH&page=5,OH,(513) 474-5566,7854 Beechmont Ave,45255,Ayer Enterprise
http://www.hmsmarketingservices.com,"Cincinnati, ",http://www.yellowpages.com/search?search_terms=real%20estate%20companies&geo_location_terms=Cincinnati%2C%20OH&page=5,OH,(440) 777-9470,8160 Corporate Park Dr,45242,HMS Real Estate
http://www.hmsmarketingservices.com,"Cincinnati, ",http://www.yellowpages.com/search?search_terms=real%20estate%20companies&geo_location_terms=Cincinnati%2C%20OH&page=5,OH,(513) 245-0506,9681 Colerain Ave,45251,Feldman Mall Properties
http://www.remax.com,"Cincinnati, ",http://www.yellowpages.com/search?search_terms=real%20estate%20companies&geo_location_terms=Cincinnati%2C%20OH&page=5,OH,(513) 574-0600,5636 Bridgetown Rd Ste E,45248,Re/Max
http://www.remax.com,"Cincinnati, ",http://www.yellowpages.com/search?search_terms=real%20estate%20companies&geo_location_terms=Cincinnati%2C%20OH&page=5,OH,(513) 251-9600,5255 Delhi Ave Ste 1,45238,Trans State International
http://www.remax.com,"Cincinnati, ",http://www.yellowpages.com/search?search_terms=real%20estate%20companies&geo_location_terms=Cincinnati%2C%20OH&page=5,OH,(513) 489-1517,11310 Montgomery Rd,45249,Re/Max Unlimited
http://www.huff.com,"Cincinnati, ",http://www.yellowpages.com/search?search_terms=real%20estate%20companies&geo_location_terms=Cincinnati%2C%20OH&page=5,OH,(513) 574-2300,6460 Harrison Ave Ste 100,45247,"Roth, Mark J"
http://www.huff.com,"Cincinnati, ",http://www.yellowpages.com/search?search_terms=real%20estate%20companies&geo_location_terms=Cincinnati%2C%20OH&page=5,OH,(513) 236-6309,7325 Thompson Rd,45247,Trevor Properties
http://www.huff.com,"Cincinnati, ",http://www.yellowpages.com/search?search_terms=real%20estate%20companies&geo_location_terms=Cincinnati%2C%20OH&page=5,OH,(513) 793-5500,8160 Corporate Park Dr Ste 300,45242,Tri City Real Estate
http://www.huff.com,"Cincinnati, ",http://www.yellowpages.com/search?search_terms=real%20estate%20companies&geo_location_terms=Cincinnati%2C%20OH&page=5,OH,(513) 631-2500,2716 Minot Ave,45209,Gronauer Realtors
http://www.huff.com,"Cincinnati, ",http://www.yellowpages.com/search?search_terms=real%20estate%20companies&geo_location_terms=Cincinnati%2C%20OH&page=5,OH,(513) 281-7170,4025 Paddock Rd,45229,B & L Co
http://www.huff.com,"Cincinnati, ",http://www.yellowpages.com/search?search_terms=real%20estate%20companies&geo_location_terms=Cincinnati%2C%20OH&page=5,OH,(513) 429-2016,6252 Joyce Ln,45237,Nexus Realty Group
http://brgapartments.com,"Cincinnati, ",http://www.yellowpages.com/search?search_terms=real%20estate%20companies&geo_location_terms=Cincinnati%2C%20OH&page=5,OH,(513) 321-9616,2341 Madison Rd,45208,Berkshire Realty Group
http://realtyconnectionsinc.com,"Cincinnati, ",http://www.yellowpages.com/search?search_terms=real%20estate%20companies&geo_location_terms=Cincinnati%2C%20OH&page=5,OH,(513) 321-5111,4932 Marburg Ave,45209,Realty Connections Inc
http://realtyconnectionsinc.com,"Cincinnati, ",http://www.yellowpages.com/search?search_terms=real%20estate%20companies&geo_location_terms=Cincinnati%2C%20OH&page=5,OH,(513) 281-7653,3409 Michigan Ave,45208,Comey & Shepherd
http://realtyconnectionsinc.com,"Cincinnati, ",http://www.yellowpages.com/search?search_terms=real%20estate%20companies&geo_location_terms=Cincinnati%2C%20OH&page=5,OH,(513) 641-0017,1171 Elm Park Dr,45216,New Horizons Realty
http://realtyconnectionsinc.com,"Cincinnati, ",http://www.yellowpages.com/search?search_terms=real%20estate%20companies&geo_location_terms=Cincinnati%2C%20OH&page=5,OH,(513) 396-6677,2249 Losantiville Ave,45237,A B Realty
http://realtyconnectionsinc.com,"Cincinnati, ",http://www.yellowpages.com/search?search_terms=real%20estate%20companies&geo_location_terms=Cincinnati%2C%20OH&page=5,OH,(513) 281-7888,2526 Cleinview Ave,45206,Eden Park Realtors
http://realtyconnectionsinc.com,"Cincinnati, ",http://www.yellowpages.com/search?search_terms=real%20estate%20companies&geo_location_terms=Cincinnati%2C%20OH&page=5,OH,(513) 281-0882,2380 Park Ave,45206,Eden Park Apartments
http://realtyconnectionsinc.com,"Cincinnati, ",http://www.yellowpages.com/search?search_terms=real%20estate%20companies&geo_location_terms=Cincinnati%2C%20OH&page=5,OH,(513) 281-7888,2220 Park Ave Ste 1,45206,Eden Park Rltrs
http://uptownrents.com,"Cincinnati, ",http://www.yellowpages.com/search?search_terms=real%20estate%20companies&geo_location_terms=Cincinnati%2C%20OH&page=5,OH,(513) 861-9394,260 E University Ave,45219,Daniel A Schimberg Real Estate Investme
http://www.eurierealty.com,"Cincinnati, ",http://www.yellowpages.com/search?search_terms=real%20estate%20companies&geo_location_terms=Cincinnati%2C%20OH&page=5,OH,(513) 271-0990,6008 Madison Rd,45227,Eurie Realty
http://cabr.org,"Cincinnati, ",http://www.yellowpages.com/search?search_terms=real%20estate%20companies&geo_location_terms=Cincinnati%2C%20OH&page=5,OH,(513) 761-8800,14 Knollcrest Dr,45237,Cincinnati Area Board of Realt
http://c-c-r.com,"Cincinnati, ",http://www.yellowpages.com/search?search_terms=real%20estate%20companies&geo_location_terms=Cincinnati%2C%20OH&page=5,OH,(513) 241-2300,625 Eden Park Dr # 750,45202,Pitstick Si
http://www.sibcycline.com,"Cincinnati, ",http://www.yellowpages.com/search?search_terms=real%20estate%20companies&geo_location_terms=Cincinnati%2C%20OH&page=5,OH,(513) 985-4010,8044 Montgomery Rd,45236,Pitstick Si
http://www.sibcycline.com,"Cincinnati, ",http://www.yellowpages.com/search?search_terms=real%20estate%20companies&geo_location_terms=Cincinnati%2C%20OH&page=5,OH,(513) 985-4010,8044 Montgomery Rd,45236,Pitstick Si
,"Cincinnati, ",http://www.yellowpages.com/search?search_terms=real%20estate%20companies&geo_location_terms=Cincinnati%2C%20OH&page=6,OH,(513) 821-3400,8711 Reading Rd,45215,Stewart & Hinkle Construction
,"Cincinnati, ",http://www.yellowpages.com/search?search_terms=real%20estate%20companies&geo_location_terms=Cincinnati%2C%20OH&page=6,OH,(513) 381-1818,1101 Saint Gregory St,45202,Accelero
http://www.remax.com,"Cincinnati, ",http://www.yellowpages.com/search?search_terms=real%20estate%20companies&geo_location_terms=Cincinnati%2C%20OH&page=6,OH,(513) 241-9800,1101 Saint Gregory St,45202,Re/Max
http://www.remax.com,"Cincinnati, ",http://www.yellowpages.com/search?search_terms=real%20estate%20companies&geo_location_terms=Cincinnati%2C%20OH&page=6,OH,(513) 561-5800,6901 Wooster Pike,45227,"Hastie, Robbin"
http://bdorger.comey.com,"Cincinnati, ",http://www.yellowpages.com/search?search_terms=real%20estate%20companies&geo_location_terms=Cincinnati%2C%20OH&page=6,OH,(513) 561-5800,6901 Wooster Pike,45227,"West, Vince"
http://bdorger.comey.com,"Cincinnati, ",http://www.yellowpages.com/search?search_terms=real%20estate%20companies&geo_location_terms=Cincinnati%2C%20OH&page=6,OH,(513) 984-9058,7763 Montgomery Rd,45236,Kenwood Realty Inc
http://3cdc.org,"Cincinnati, ",http://www.yellowpages.com/search?search_terms=real%20estate%20companies&geo_location_terms=Cincinnati%2C%20OH&page=6,OH,(513) 621-4400,1203 Walnut St # 4,45202,3c DC
http://www.remax.com,"Cincinnati, ",http://www.yellowpages.com/search?search_terms=real%20estate%20companies&geo_location_terms=Cincinnati%2C%20OH&page=6,OH,(513) 745-8373,7265 Kenwood Rd,45236,Re/Max
http://gradinproperties.com,"Cincinnati, ",http://www.yellowpages.com/search?search_terms=real%20estate%20companies&geo_location_terms=Cincinnati%2C%20OH&page=6,OH,(513) 721-7110,1308 Race St # 200,45202,Grandin Properties
http://gradinproperties.com,"Cincinnati, ",http://www.yellowpages.com/search?search_terms=real%20estate%20companies&geo_location_terms=Cincinnati%2C%20OH&page=6,OH,(513) 381-0047,19 Garfield Pl # 5,45202,Presidential Plaza
http://gradinproperties.com,"Cincinnati, ",http://www.yellowpages.com/search?search_terms=real%20estate%20companies&geo_location_terms=Cincinnati%2C%20OH&page=6,OH,(513) 361-8500,600 Vine St # 1900,45202,Equis Corp
http://gradinproperties.com,"Cincinnati, ",http://www.yellowpages.com/search?search_terms=real%20estate%20companies&geo_location_terms=Cincinnati%2C%20OH&page=6,OH,(513) 721-4200,425 Walnut St Ste 1200,45202,Fred Real Macke EST
http://gradinproperties.com,"Cincinnati, ",http://www.yellowpages.com/search?search_terms=real%20estate%20companies&geo_location_terms=Cincinnati%2C%20OH&page=6,OH,(513) 721-4200,425 Walnut St Ste 1200,45202,Douglas Real Altemuehle EST
http://www.wincincy.org,"Cincinnati, ",http://www.yellowpages.com/search?search_terms=real%20estate%20companies&geo_location_terms=Cincinnati%2C%20OH&page=6,OH,(513) 541-4109,1814 Dreman Ave,45223,Working In Neighborhoods Inc
http://brilyn.com,"Cincinnati, ",http://www.yellowpages.com/search?search_terms=real%20estate%20companies&geo_location_terms=Cincinnati%2C%20OH&page=6,OH,(513) 821-1990,1250 Springfield Pike Ste 400,45215,Brilyn Inc
http://brilyn.com,"Cincinnati, ",http://www.yellowpages.com/search?search_terms=real%20estate%20companies&geo_location_terms=Cincinnati%2C%20OH&page=6,OH,(513) 241-3888,441 Vine St Ste 1400,45202,Belvedere Corporation
http://thegymatcarewtower.com,"Cincinnati, ",http://www.yellowpages.com/search?search_terms=real%20estate%20companies&geo_location_terms=Cincinnati%2C%20OH&page=6,OH,(513) 241-3888,441 Vine St # 500,45202,Carew Realty
http://www.remax.com,"Cincinnati, ",http://www.yellowpages.com/search?search_terms=real%20estate%20companies&geo_location_terms=Cincinnati%2C%20OH&page=6,OH,(513) 533-4111,7710 Shawnee Run Rd,45243,Remax
http://www.remax.com,"Cincinnati, ",http://www.yellowpages.com/search?search_terms=real%20estate%20companies&geo_location_terms=Cincinnati%2C%20OH&page=6,OH,(513) 221-7536,327 W 4th St,45202,Definitive Space Designs
http://www.remax.com,"Cincinnati, ",http://www.yellowpages.com/search?search_terms=real%20estate%20companies&geo_location_terms=Cincinnati%2C%20OH&page=6,OH,(513) 792-2288,8044 Montgomery Rd Ste 700,45236,Duval
http://tdrlaw.net,"Cincinnati, ",http://www.yellowpages.com/search?search_terms=real%20estate%20companies&geo_location_terms=Cincinnati%2C%20OH&page=6,OH,(513) 891-6880,8060 Montgomery Rd,45236,Eggleston & Assoc
http://bellwethercap.com,"Cincinnati, ",http://www.yellowpages.com/search?search_terms=real%20estate%20companies&geo_location_terms=Cincinnati%2C%20OH&page=6,OH,(513) 985-4400,8040 Hosbrook Rd Ste 205,45236,Bellwether Real Estate Capital
http://bellwethercap.com,"Cincinnati, ",http://www.yellowpages.com/search?search_terms=real%20estate%20companies&geo_location_terms=Cincinnati%2C%20OH&page=6,OH,(513) 793-8940,6455 Westover Cir,45236,Virginia E Burd Inc
http://bellwethercap.com,"Cincinnati, ",http://www.yellowpages.com/search?search_terms=real%20estate%20companies&geo_location_terms=Cincinnati%2C%20OH&page=6,OH,(513) 861-4414,9600 Winton Rd,45231,Jones Joann & Associates Realtor
http://gecreditunion.org,"Cincinnati, ",http://www.yellowpages.com/search?search_terms=real%20estate%20companies&geo_location_terms=Cincinnati%2C%20OH&page=6,OH,(513) 243-8600,10485 Reading Rd,45241,Home Information Network
http://www.cincinnatilivingonline.com,"Cincinnati, ",http://www.yellowpages.com/search?search_terms=real%20estate%20companies&geo_location_terms=Cincinnati%2C%20OH&page=6,OH,(513) 792-5121,9400 Montgomery Rd Ste C,45242,Comey & Shepherd
http://www.onehomefinder.com,"Cincinnati, ",http://www.yellowpages.com/search?search_terms=real%20estate%20companies&geo_location_terms=Cincinnati%2C%20OH&page=6,OH,(513) 860-3100,4745 Glendale Milford Rd,45242,"Prudential One, Realtors, Montgomery, OH"
http://davebiederman.com,"Cincinnati, ",http://www.yellowpages.com/search?search_terms=real%20estate%20companies&geo_location_terms=Cincinnati%2C%20OH&page=6,OH,(513) 236-5135,3240 N Bend Rd,45239,Re-Max Preferred Dave Bdrmn
http://servicemaxrealty.info,"Cincinnati, ",http://www.yellowpages.com/search?search_terms=real%20estate%20companies&geo_location_terms=Cincinnati%2C%20OH&page=6,OH,(513) 662-6800,3341 Harrison Ave,45211,Affordable Realty & Property
http://huff.com,"Cincinnati, ",http://www.yellowpages.com/search?search_terms=real%20estate%20companies&geo_location_terms=Cincinnati%2C%20OH&page=6,OH,(513) 245-1266,5709 Cheviot Rd,45247,Huff Realty
http://www.sibcycline.com,"Cincinnati, ",http://www.yellowpages.com/search?search_terms=real%20estate%20companies&geo_location_terms=Cincinnati%2C%20OH&page=6,OH,(513) 985-4010,8044 Montgomery Rd,45236,Huff Realty
http://www.sibcycline.com,"Cincinnati, ",http://www.yellowpages.com/search?search_terms=real%20estate%20companies&geo_location_terms=Cincinnati%2C%20OH&page=6,OH,(513) 985-4010,8044 Montgomery Rd,45236,Huff Realty
http://thecityofcincinnati.com,"Cincinnati, ",http://www.yellowpages.com/search?search_terms=real%20estate%20companies&geo_location_terms=Cincinnati%2C%20OH&page=7,OH,(513) 671-4777,11540 Century Blvd,45246,Century Plus Partners
http://pendragonhomes.com,"Cincinnati, ",http://www.yellowpages.com/search?search_terms=real%20estate%20companies&geo_location_terms=Cincinnati%2C%20OH&page=7,OH,(513) 233-2211,7746 Fox Trail Ln,45255,Nordloh Properties
http://pendragonhomes.com,"Cincinnati, ",http://www.yellowpages.com/search?search_terms=real%20estate%20companies&geo_location_terms=Cincinnati%2C%20OH&page=7,OH,(513) 922-6600,5500 Muddy Creek Rd,45238,Muddy Creek Land Co
http://513forsalebyowner.com,"Cincinnati, ",http://www.yellowpages.com/search?search_terms=real%20estate%20companies&geo_location_terms=Cincinnati%2C%20OH&page=7,OH,(513) 769-4663,11974 Lebanon Rd Ste 336,45241,for Sale by Owner Services
http://513forsalebyowner.com,"Cincinnati, ",http://www.yellowpages.com/search?search_terms=real%20estate%20companies&geo_location_terms=Cincinnati%2C%20OH&page=7,OH,(513) 771-4663,689 Cedarhill Dr,45246,K & D Assoc
http://513forsalebyowner.com,"Cincinnati, ",http://www.yellowpages.com/search?search_terms=real%20estate%20companies&geo_location_terms=Cincinnati%2C%20OH&page=7,OH,(513) 860-0480,50 E Business Way Ste 180,45241,First Indstrl Realty Trust Inc
http://rreef.com,"Cincinnati, ",http://www.yellowpages.com/search?search_terms=real%20estate%20companies&geo_location_terms=Cincinnati%2C%20OH&page=7,OH,(513) 936-9933,7870 E Kemper Rd Ste 260,45249,CB Richard Ellis
http://markschupp.com,"Cincinnati, ",http://www.yellowpages.com/search?search_terms=real%20estate%20companies&geo_location_terms=Cincinnati%2C%20OH&page=7,OH,(513) 385-0900,9940 Colerain Ave,45251,"Walsh, Kay M"
http://www.postonandassociates.com,"Cincinnati, ",http://www.yellowpages.com/search?search_terms=real%20estate%20companies&geo_location_terms=Cincinnati%2C%20OH&page=7,OH,(513) 943-1600,4004 Commercial Blvd Ste 102,45245,Poston & Associates
http://realliving.com,"Cincinnati, ",http://www.yellowpages.com/search?search_terms=real%20estate%20companies&geo_location_terms=Cincinnati%2C%20OH&page=7,OH,(513) 752-8200,671 Ohio Pike Ste I,45245,Real Living Realty Service
http://sibcycline.com,"Cincinnati, ",http://www.yellowpages.com/search?search_terms=real%20estate%20companies&geo_location_terms=Cincinnati%2C%20OH&page=7,OH,(513) 752-4000,792 Eastgate South Dr,45245,Rebecca L Lyle Real EST
http://aubertduval.com,"Cincinnati, ",http://www.yellowpages.com/search?search_terms=real%20estate%20companies&geo_location_terms=Cincinnati%2C%20OH&page=7,OH,(513) 263-1180,8845 Governors Hill Dr Ste 200,45249,Aubert & Duval
http://cushmanwakefield.com,"Cincinnati, ",http://www.yellowpages.com/search?search_terms=real%20estate%20companies&geo_location_terms=Cincinnati%2C%20OH&page=7,OH,(513) 583-5555,8845 Governors Hill Dr Ste 240,45249,Cushman & Wakefield
http://www.ampacet.com,"Cincinnati, ",http://www.yellowpages.com/search?search_terms=real%20estate%20companies&geo_location_terms=Cincinnati%2C%20OH&page=7,OH,(513) 247-5400,11500 Northlake Dr Ste 255,45249,Ampacet Corp
http://www.ampacet.com,"Cincinnati, ",http://www.yellowpages.com/search?search_terms=real%20estate%20companies&geo_location_terms=Cincinnati%2C%20OH&page=7,OH,(513) 366-2020,4030 Smith Rd Ste 3,45209,Durorealty
http://www.ampacet.com,"Cincinnati, ",http://www.yellowpages.com/search?search_terms=real%20estate%20companies&geo_location_terms=Cincinnati%2C%20OH&page=7,OH,(513) 351-4109,3831 Edwards Rd,45209,Anderson Realty Group
http://www.ampacet.com,"Cincinnati, ",http://www.yellowpages.com/search?search_terms=real%20estate%20companies&geo_location_terms=Cincinnati%2C%20OH&page=7,OH,(513) 569-8745,2727 Madison Rd Ste 305,45209,Midwest Centers LTD
http://www.ampacet.com,"Cincinnati, ",http://www.yellowpages.com/search?search_terms=real%20estate%20companies&geo_location_terms=Cincinnati%2C%20OH&page=7,OH,(513) 484-5998,2692 Madison Rd,45208,Hardt Properties
http://www.ampacet.com,"Cincinnati, ",http://www.yellowpages.com/search?search_terms=real%20estate%20companies&geo_location_terms=Cincinnati%2C%20OH&page=7,OH,(513) 702-3646,2650 Erie Ave,45208,"Peters, Tami"
http://cincyre.com,"Cincinnati, ",http://www.yellowpages.com/search?search_terms=real%20estate%20companies&geo_location_terms=Cincinnati%2C%20OH&page=7,OH,(513) 533-9933,2722 Observatory Ave,45208,"Stillpass, Laurence G"
http://cincyre.com,"Cincinnati, ",http://www.yellowpages.com/search?search_terms=real%20estate%20companies&geo_location_terms=Cincinnati%2C%20OH&page=7,OH,(513) 489-8444,6611 Vine St,45216,Key Ring Realty
http://cincyre.com,"Cincinnati, ",http://www.yellowpages.com/search?search_terms=real%20estate%20companies&geo_location_terms=Cincinnati%2C%20OH&page=7,OH,(513) 221-0832,3305 Harvey Ave,45229,Titan Real Estate
http://cincyre.com,"Cincinnati, ",http://www.yellowpages.com/search?search_terms=real%20estate%20companies&geo_location_terms=Cincinnati%2C%20OH&page=7,OH,(513) 289-3147,2317 Park Ave,45206,Kca Properties
http://cincyre.com,"Cincinnati, ",http://www.yellowpages.com/search?search_terms=real%20estate%20companies&geo_location_terms=Cincinnati%2C%20OH&page=7,OH,(513) 751-5300,3307 Clifton Ave Ste 2,45220,MidWest Centers LTD
http://cincyre.com,"Cincinnati, ",http://www.yellowpages.com/search?search_terms=real%20estate%20companies&geo_location_terms=Cincinnati%2C%20OH&page=7,OH,(513) 281-5100,325 Ludlow Ave,45220,Comey & Shepherd Realtors
http://www.otooleassoc.com,"Cincinnati, ",http://www.yellowpages.com/search?search_terms=real%20estate%20companies&geo_location_terms=Cincinnati%2C%20OH&page=7,OH,(513) 621-2336,5725 Dragon Way,45227,John R O'toole & Assoc
http://www.otooleassoc.com,"Cincinnati, ",http://www.yellowpages.com/search?search_terms=real%20estate%20companies&geo_location_terms=Cincinnati%2C%20OH&page=7,OH,(513) 791-8298,5721 Dragon Way Ste 213,45227,Foxfire Properties Inc
http://www.neyer.com,"Cincinnati, ",http://www.yellowpages.com/search?search_terms=real%20estate%20companies&geo_location_terms=Cincinnati%2C%20OH&page=7,OH,(513) 221-3127,285 Calhoun St,45219,Al Neyer
http://www.neyer.com,"Cincinnati, ",http://www.yellowpages.com/search?search_terms=real%20estate%20companies&geo_location_terms=Cincinnati%2C%20OH&page=7,OH,(513) 221-0684,630 Lowell Ave,45220,Cmc Properties
http://www.neyer.com,"Cincinnati, ",http://www.yellowpages.com/search?search_terms=real%20estate%20companies&geo_location_terms=Cincinnati%2C%20OH&page=7,OH,(513) 723-0989,1104 Saint Gregory St,45202,Apartment Invstmt Realty Real Est
http://www.sibcycline.com,"Cincinnati, ",http://www.yellowpages.com/search?search_terms=real%20estate%20companies&geo_location_terms=Cincinnati%2C%20OH&page=7,OH,(513) 985-4010,8044 Montgomery Rd,45236,Apartment Invstmt Realty Real Est
http://www.sibcycline.com,"Cincinnati, ",http://www.yellowpages.com/search?search_terms=real%20estate%20companies&geo_location_terms=Cincinnati%2C%20OH&page=7,OH,(513) 985-4010,8044 Montgomery Rd,45236,Apartment Invstmt Realty Real Est
,"Cincinnati, ",http://www.yellowpages.com/search?search_terms=real%20estate%20companies&geo_location_terms=Cincinnati%2C%20OH&page=8,OH,(513) 762-7888,312 Mayerson Bldg,45202,Co Star Group
http://capitalrealestate.net,"Cincinnati, ",http://www.yellowpages.com/search?search_terms=real%20estate%20companies&geo_location_terms=Cincinnati%2C%20OH&page=8,OH,(513) 762-7622,312 Mayerson Bldg,45202,Capital Real EST Partners
http://capitalrealestate.net,"Cincinnati, ",http://www.yellowpages.com/search?search_terms=real%20estate%20companies&geo_location_terms=Cincinnati%2C%20OH&page=8,OH,(513) 762-7822,312 Mayerson Bldg,45202,Continental Properties
http://capitalrealestate.net,"Cincinnati, ",http://www.yellowpages.com/search?search_terms=real%20estate%20companies&geo_location_terms=Cincinnati%2C%20OH&page=8,OH,(513) 831-3581,6901 Wooster Pike,45227,"Miller, Sheila"
http://capitalrealestate.net,"Cincinnati, ",http://www.yellowpages.com/search?search_terms=real%20estate%20companies&geo_location_terms=Cincinnati%2C%20OH&page=8,OH,(513) 561-5800,6901 Wooster Pike,45227,Christopher Real Nicholson EST
http://capitalrealestate.net,"Cincinnati, ",http://www.yellowpages.com/search?search_terms=real%20estate%20companies&geo_location_terms=Cincinnati%2C%20OH&page=8,OH,(513) 561-5800,6901 Wooster Pike,45227,Scott Real Nelson EST
http://capitalrealestate.net,"Cincinnati, ",http://www.yellowpages.com/search?search_terms=real%20estate%20companies&geo_location_terms=Cincinnati%2C%20OH&page=8,OH,(513) 621-8600,1128 Main St # 200,45202,Cawdrey Commercial Real Estate
http://capitalrealestate.net,"Cincinnati, ",http://www.yellowpages.com/search?search_terms=real%20estate%20companies&geo_location_terms=Cincinnati%2C%20OH&page=8,OH,(513) 271-8270,6800 Sorrel Ln,45243,Hastie Robbin Real EST
http://capitalrealestate.net,"Cincinnati, ",http://www.yellowpages.com/search?search_terms=real%20estate%20companies&geo_location_terms=Cincinnati%2C%20OH&page=8,OH,(513) 891-2300,4333 E Galbraith Rd,45236,Emerald Realty Inc
http://northpointegroup.com,"Cincinnati, ",http://www.yellowpages.com/search?search_terms=real%20estate%20companies&geo_location_terms=Cincinnati%2C%20OH&page=8,OH,(513) 579-1850,1404 Race St,45202,Kimbler R M Interest Inc
http://wwbrqapartments.com,"Cincinnati, ",http://www.yellowpages.com/search?search_terms=real%20estate%20companies&geo_location_terms=Cincinnati%2C%20OH&page=8,OH,(513) 752-4424,7265 Kenwood Rd Ste 110,45236,Berkshire Realty Group
http://wwbrqapartments.com,"Cincinnati, ",http://www.yellowpages.com/search?search_terms=real%20estate%20companies&geo_location_terms=Cincinnati%2C%20OH&page=8,OH,(513) 345-5803,30 E Central Pkwy,45202,Huff Realty
http://wwbrqapartments.com,"Cincinnati, ",http://www.yellowpages.com/search?search_terms=real%20estate%20companies&geo_location_terms=Cincinnati%2C%20OH&page=8,OH,(513) 791-7455,7440 Wood Meadow Dr,45243,Jumper Two Properties
http://wwbrqapartments.com,"Cincinnati, ",http://www.yellowpages.com/search?search_terms=real%20estate%20companies&geo_location_terms=Cincinnati%2C%20OH&page=8,OH,(513) 241-3600,1109 Vine St,45202,Bob Lenhart Real Estate
http://wwbrqapartments.com,"Cincinnati, ",http://www.yellowpages.com/search?search_terms=real%20estate%20companies&geo_location_terms=Cincinnati%2C%20OH&page=8,OH,(513) 421-5224,602 Main St,45202,Wpmh Properties
http://wwbrqapartments.com,"Cincinnati, ",http://www.yellowpages.com/search?search_terms=real%20estate%20companies&geo_location_terms=Cincinnati%2C%20OH&page=8,OH,(513) 381-4045,815 Findlay St,45214,Williams Marshall W
http://wwbrqapartments.com,"Cincinnati, ",http://www.yellowpages.com/search?search_terms=real%20estate%20companies&geo_location_terms=Cincinnati%2C%20OH&page=8,OH,(513) 281-6900,201 E 5th St # 1900,45202,Washington Realty Group Inc
http://wwbrqapartments.com,"Cincinnati, ",http://www.yellowpages.com/search?search_terms=real%20estate%20companies&geo_location_terms=Cincinnati%2C%20OH&page=8,OH,(513) 579-7711,7 W 7th St,45202,Jas B Selonick Real EST Consltnt
http://dtz.cassidyturley.com,"Cincinnati, ",http://www.yellowpages.com/search?search_terms=real%20estate%20companies&geo_location_terms=Cincinnati%2C%20OH&page=8,OH,(513) 361-0061,600 Vine St # 1900,45202,Dtz
http://dtz.cassidyturley.com,"Cincinnati, ",http://www.yellowpages.com/search?search_terms=real%20estate%20companies&geo_location_terms=Cincinnati%2C%20OH&page=8,OH,(513) 721-4200,425 Walnut St Ste 1200,45202,Christopher Real Prosser EST
http://dtz.cassidyturley.com,"Cincinnati, ",http://www.yellowpages.com/search?search_terms=real%20estate%20companies&geo_location_terms=Cincinnati%2C%20OH&page=8,OH,(513) 721-4200,425 Walnut St Ste 1200,45202,David Real Azar EST
http://dtz.cassidyturley.com,"Cincinnati, ",http://www.yellowpages.com/search?search_terms=real%20estate%20companies&geo_location_terms=Cincinnati%2C%20OH&page=8,OH,(513) 721-4200,425 Walnut St Ste 1200,45202,Scott Real Yards EST
http://dtz.cassidyturley.com,"Cincinnati, ",http://www.yellowpages.com/search?search_terms=real%20estate%20companies&geo_location_terms=Cincinnati%2C%20OH&page=8,OH,(513) 721-4200,425 Walnut St Ste 1200,45202,Karen Real Congdon EST
http://dtz.cassidyturley.com,"Cincinnati, ",http://www.yellowpages.com/search?search_terms=real%20estate%20companies&geo_location_terms=Cincinnati%2C%20OH&page=8,OH,(513) 721-4200,425 Walnut St Ste 1200,45202,James Real Dvanney EST
http://dtz.cassidyturley.com,"Cincinnati, ",http://www.yellowpages.com/search?search_terms=real%20estate%20companies&geo_location_terms=Cincinnati%2C%20OH&page=8,OH,(513) 241-7688,414 Walnut St # 600,45202,Jerry Devitt & Associates
http://dtz.cassidyturley.com,"Cincinnati, ",http://www.yellowpages.com/search?search_terms=real%20estate%20companies&geo_location_terms=Cincinnati%2C%20OH&page=8,OH,(513) 721-7707,441 Vine St # 1829,45202,PJC Inc
http://marketplaceohio.com,"Cincinnati, ",http://www.yellowpages.com/search?search_terms=real%20estate%20companies&geo_location_terms=Cincinnati%2C%20OH&page=8,OH,(513) 263-6380,6 E 4th St,45202,C L A Oh
http://c-c-r.com,"Cincinnati, ",http://www.yellowpages.com/search?search_terms=real%20estate%20companies&geo_location_terms=Cincinnati%2C%20OH&page=8,OH,(513) 241-2300,1 E 4th St,45202,C Cr Cinti Commercial Realtors
http://realliving.com,"Cincinnati, ",http://www.yellowpages.com/search?search_terms=real%20estate%20companies&geo_location_terms=Cincinnati%2C%20OH&page=8,OH,(513) 871-2807,4990 E Galbraith Rd Ste 101,45236,Real Living
http://brixmor.com,"Cincinnati, ",http://www.yellowpages.com/search?search_terms=real%20estate%20companies&geo_location_terms=Cincinnati%2C%20OH&page=8,OH,(513) 521-4350,951 Hempstead Dr,45231,Brismor Properties Group
http://www.sibcycline.com,"Cincinnati, ",http://www.yellowpages.com/search?search_terms=real%20estate%20companies&geo_location_terms=Cincinnati%2C%20OH&page=8,OH,(513) 985-4010,8044 Montgomery Rd,45236,Brismor Properties Group
http://www.sibcycline.com,"Cincinnati, ",http://www.yellowpages.com/search?search_terms=real%20estate%20companies&geo_location_terms=Cincinnati%2C%20OH&page=8,OH,(513) 985-4010,8044 Montgomery Rd,45236,Brismor Properties Group
,"Cincinnati, ",http://www.yellowpages.com/search?search_terms=real%20estate%20companies&geo_location_terms=Cincinnati%2C%20OH&page=9,OH,(513) 389-0825,1900 Westwood Northern Blvd,45225,Pe Relds Valley View Realty
,"Cincinnati, ",http://www.yellowpages.com/search?search_terms=real%20estate%20companies&geo_location_terms=Cincinnati%2C%20OH&page=9,OH,(513) 891-0990,7835 Camargo Rd,45243,Riverstone Development Group
http://stanrealty.com,"Cincinnati, ",http://www.yellowpages.com/search?search_terms=real%20estate%20companies&geo_location_terms=Cincinnati%2C%20OH&page=9,OH,(513) 426-7454,7832 Laurel Ave,45243,Stanley Realty
http://www.nationalchurchresidences.org/services-housing-details.php?ID=501,"Cincinnati, ",http://www.yellowpages.com/search?search_terms=real%20estate%20companies&geo_location_terms=Cincinnati%2C%20OH&page=9,OH,(513) 541-5006,3600 McHenry Ave,45225,Mchenry House
http://www.nationalchurchresidences.org/services-housing-details.php?ID=501,"Cincinnati, ",http://www.yellowpages.com/search?search_terms=real%20estate%20companies&geo_location_terms=Cincinnati%2C%20OH&page=9,OH,(513) 521-4433,348 Grove Rd,45215,Vince Evers Realtors
http://www.nationalchurchresidences.org/services-housing-details.php?ID=501,"Cincinnati, ",http://www.yellowpages.com/search?search_terms=real%20estate%20companies&geo_location_terms=Cincinnati%2C%20OH&page=9,OH,(513) 244-2247,1860 Queen City Ave,45214,Folkers Associates
http://www.nationalchurchresidences.org/services-housing-details.php?ID=501,"Cincinnati, ",http://www.yellowpages.com/search?search_terms=real%20estate%20companies&geo_location_terms=Cincinnati%2C%20OH&page=9,OH,(513) 771-6522,10280 Spartan Dr,45215,Even Dale
http://realliving.com,"Cincinnati, ",http://www.yellowpages.com/search?search_terms=real%20estate%20companies&geo_location_terms=Cincinnati%2C%20OH&page=9,OH,(513) 587-5420,8740 Montgomery Rd Ste 1,45236,Real Living Realty Service
http://realestatefinancialconsultants.com,"Cincinnati, ",http://www.yellowpages.com/search?search_terms=real%20estate%20companies&geo_location_terms=Cincinnati%2C%20OH&page=9,OH,(513) 674-9344,9657 Daly Rd,45231,Real EST Financl Consltnts
http://realestatefinancialconsultants.com,"Cincinnati, ",http://www.yellowpages.com/search?search_terms=real%20estate%20companies&geo_location_terms=Cincinnati%2C%20OH&page=9,OH,(513) 891-8500,9321 Montgomery Rd,45242,Gerri S Strauss Real EST
http://realestatefinancialconsultants.com,"Cincinnati, ",http://www.yellowpages.com/search?search_terms=real%20estate%20companies&geo_location_terms=Cincinnati%2C%20OH&page=9,OH,(513) 891-8500,9321 Montgomery Rd,45242,Cookie Schott Markham Real EST
http://realestatefinancialconsultants.com,"Cincinnati, ",http://www.yellowpages.com/search?search_terms=real%20estate%20companies&geo_location_terms=Cincinnati%2C%20OH&page=9,OH,(513) 891-8500,9321 Montgomery Rd,45242,Levine Joyce
http://realestatefinancialconsultants.com,"Cincinnati, ",http://www.yellowpages.com/search?search_terms=real%20estate%20companies&geo_location_terms=Cincinnati%2C%20OH&page=9,OH,(513) 891-8500,9321 Montgomery Rd,45242,Ogle P Annett Real EST
http://realestatefinancialconsultants.com,"Cincinnati, ",http://www.yellowpages.com/search?search_terms=real%20estate%20companies&geo_location_terms=Cincinnati%2C%20OH&page=9,OH,(513) 522-8000,7194 Pippin Rd,45239,Woodhouse & Associates
http://realestatefinancialconsultants.com,"Cincinnati, ",http://www.yellowpages.com/search?search_terms=real%20estate%20companies&geo_location_terms=Cincinnati%2C%20OH&page=9,OH,(513) 791-2255,9722 Montgomery Rd,45242,Kathy Real Baker EST
http://enterpriseelectronicsales.com,"Cincinnati, ",http://www.yellowpages.com/search?search_terms=real%20estate%20companies&geo_location_terms=Cincinnati%2C%20OH&page=9,OH,(513) 733-4040,10928 Bridlepath Ln,45241,Enterprise Electronic Sal
http://ryansolutions.com,"Cincinnati, ",http://www.yellowpages.com/search?search_terms=real%20estate%20companies&geo_location_terms=Cincinnati%2C%20OH&page=9,OH,(513) 386-9942,11090 Ashburn Rd,45240,Ryan Solutions
http://galbraithrealtors.com,"Cincinnati, ",http://www.yellowpages.com/search?search_terms=real%20estate%20companies&geo_location_terms=Cincinnati%2C%20OH&page=9,OH,(513) 729-1555,7793 Colerain Ave,45239,Galbraith Realtors
http://www.mapleknoll.org,"Cincinnati, ",http://www.yellowpages.com/search?search_terms=real%20estate%20companies&geo_location_terms=Cincinnati%2C%20OH&page=9,OH,(513) 771-4312,11285 Springfield Pike,45246,Maple Knoll Communities Inc
http://www.mapleknoll.org,"Cincinnati, ",http://www.yellowpages.com/search?search_terms=real%20estate%20companies&geo_location_terms=Cincinnati%2C%20OH&page=9,OH,(513) 662-6800,3341 Harrison Ave,45211,Servicemax Realty
http://sherrodrealtygroup.com,"Cincinnati, ",http://www.yellowpages.com/search?search_terms=real%20estate%20companies&geo_location_terms=Cincinnati%2C%20OH&page=9,OH,(513) 771-0054,260 Northland Blvd # 228,45246,Sherrod Realty Group
http://ownerland.net,"Cincinnati, ",http://www.yellowpages.com/search?search_terms=real%20estate%20companies&geo_location_terms=Cincinnati%2C%20OH&page=9,OH,(513) 896-1200,110 Boggs Ln # 300,45246,"Ownerland Realty, Inc."
http://ownerland.net,"Cincinnati, ",http://www.yellowpages.com/search?search_terms=real%20estate%20companies&geo_location_terms=Cincinnati%2C%20OH&page=9,OH,(513) 761-6800,813 Exmoor Dr,45240,Domicile Realtors
http://ownerland.net,"Cincinnati, ",http://www.yellowpages.com/search?search_terms=real%20estate%20companies&geo_location_terms=Cincinnati%2C%20OH&page=9,OH,(513) 385-2782,3670 Hubble Rd,45247,Roi Enterprises
http://kdrealty.com,"Cincinnati, ",http://www.yellowpages.com/search?search_terms=real%20estate%20companies&geo_location_terms=Cincinnati%2C%20OH&page=9,OH,(513) 771-4663,29 Triangle Park Dr # 2902,45246,K & D Associates In Real Estate
http://about-space.net,"Cincinnati, ",http://www.yellowpages.com/search?search_terms=real%20estate%20companies&geo_location_terms=Cincinnati%2C%20OH&page=9,OH,(513) 251-5200,4285 Mayhew Ave,45238,R A Hermes Inc
http://about-space.net,"Cincinnati, ",http://www.yellowpages.com/search?search_terms=real%20estate%20companies&geo_location_terms=Cincinnati%2C%20OH&page=9,OH,(513) 474-2738,2166 8 Mile Rd,45244,Albert C H Realty
http://about-space.net,"Cincinnati, ",http://www.yellowpages.com/search?search_terms=real%20estate%20companies&geo_location_terms=Cincinnati%2C%20OH&page=9,OH,(513) 389-9600,3404 Werk Rd,45211,C Edward Morris Real EST Apprs
http://www.servicemerchandise.com,"Cincinnati, ",http://www.yellowpages.com/search?search_terms=real%20estate%20companies&geo_location_terms=Cincinnati%2C%20OH&page=9,OH,(513) 451-4144,5100 Glencrossing Way,45238,Service Merchandise Co
http://www.huff.com,"Cincinnati, ",http://www.yellowpages.com/search?search_terms=real%20estate%20companies&geo_location_terms=Cincinnati%2C%20OH&page=9,OH,(513) 474-3500,7991 Beechmont Ave,45255,Huff Realty Inc
http://www.sibcycline.com,"Cincinnati, ",http://www.yellowpages.com/search?search_terms=real%20estate%20companies&geo_location_terms=Cincinnati%2C%20OH&page=9,OH,(513) 985-4010,8044 Montgomery Rd,45236,Huff Realty Inc
http://www.sibcycline.com,"Cincinnati, ",http://www.yellowpages.com/search?search_terms=real%20estate%20companies&geo_location_terms=Cincinnati%2C%20OH&page=9,OH,(513) 985-4010,8044 Montgomery Rd,45236,Huff Realty Inc
http://cincycreativehomes.com,"Cincinnati, ",http://www.yellowpages.com/search?search_terms=real%20estate%20companies&geo_location_terms=Cincinnati%2C%20OH&page=10,OH,(513) 554-0871,4055 Executive Park Dr,45241,Cincy Creative Homes
http://cincycreativehomes.com,"Cincinnati, ",http://www.yellowpages.com/search?search_terms=real%20estate%20companies&geo_location_terms=Cincinnati%2C%20OH&page=10,OH,(513) 451-2100,1333 Colonial Dr,45238,Howard G Thiemann Real EST
http://realliving.com,"Cincinnati, ",http://www.yellowpages.com/search?search_terms=real%20estate%20companies&geo_location_terms=Cincinnati%2C%20OH&page=10,OH,(513) 752-8200,8176 Beechmont Ave,45255,Real Living Realty Svc
http://realliving.com,"Cincinnati, ",http://www.yellowpages.com/search?search_terms=real%20estate%20companies&geo_location_terms=Cincinnati%2C%20OH&page=10,OH,(513) 388-4040,8291 Beechmont Ave,45255,Comey & Shephard
http://realliving.com,"Cincinnati, ",http://www.yellowpages.com/search?search_terms=real%20estate%20companies&geo_location_terms=Cincinnati%2C%20OH&page=10,OH,(513) 771-2580,300 E Business Way # 300,45241,Colliers Turley Tucker Mgmt
http://thecrowellco.com,"Cincinnati, ",http://www.yellowpages.com/search?search_terms=real%20estate%20companies&geo_location_terms=Cincinnati%2C%20OH&page=10,OH,(513) 474-0050,8641 Linderwood Ln,45255,Crowell Co
http://thecrowellco.com,"Cincinnati, ",http://www.yellowpages.com/search?search_terms=real%20estate%20companies&geo_location_terms=Cincinnati%2C%20OH&page=10,OH,(513) 605-7600,11500 Northlake Dr Ste 130,45249,One Northlake Place
http://www.remax.com,"Cincinnati, ",http://www.yellowpages.com/search?search_terms=real%20estate%20companies&geo_location_terms=Cincinnati%2C%20OH&page=10,OH,(513) 661-8700,5680 Bridgetown Rd,45248,"Williams, Joanne - Re/Max Acclaimed Realty"
http://www.remax.com,"Cincinnati, ",http://www.yellowpages.com/search?search_terms=real%20estate%20companies&geo_location_terms=Cincinnati%2C%20OH&page=10,OH,(513) 469-1500,11210 Montgomery Rd,45249,Morelia Group
http://www.remax.com,"Cincinnati, ",http://www.yellowpages.com/search?search_terms=real%20estate%20companies&geo_location_terms=Cincinnati%2C%20OH&page=10,OH,(513) 922-1369,5320 Delhi Ave,45238,Gorsuch Homes Inc
http://www.remax.com,"Cincinnati, ",http://www.yellowpages.com/search?search_terms=real%20estate%20companies&geo_location_terms=Cincinnati%2C%20OH&page=10,OH,(513) 528-5444,463 Ohio Pike # 202,45255,Newton Oldacre McDonald
http://www.remax.com,"Cincinnati, ",http://www.yellowpages.com/search?search_terms=real%20estate%20companies&geo_location_terms=Cincinnati%2C%20OH&page=10,OH,(513) 232-2100,754 Cincinnati Batavia Pike,45245,Jerry C Fletcher Mai;Accredited Senior Appraiser
http://www.remax.com,"Cincinnati, ",http://www.yellowpages.com/search?search_terms=real%20estate%20companies&geo_location_terms=Cincinnati%2C%20OH&page=10,OH,(513) 489-3071,8614 Twilight Tear Ln,45249,Neal Real Sundermann EST
http://www.remax.com,"Cincinnati, ",http://www.yellowpages.com/search?search_terms=real%20estate%20companies&geo_location_terms=Cincinnati%2C%20OH&page=10,OH,(513) 574-8224,6106 Woodhall Dr,45247,Kay M Walsh Real EST
http://www.realtyexecutives.com,"Cincinnati, ",http://www.yellowpages.com/search?search_terms=real%20estate%20companies&geo_location_terms=Cincinnati%2C%20OH&page=10,OH,(513) 322-2905,700 Eastgate South Dr,45245,Realty Executives International
http://www.realtyexecutives.com,"Cincinnati, ",http://www.yellowpages.com/search?search_terms=real%20estate%20companies&geo_location_terms=Cincinnati%2C%20OH&page=10,OH,(513) 685-9001,4102 Durhams Xing,45245,We Renew Properties Inc
http://cutlerhomes.com,"Cincinnati, ",http://www.yellowpages.com/search?search_terms=real%20estate%20companies&geo_location_terms=Cincinnati%2C%20OH&page=10,OH,(513) 429-4304,6460 Harrison Ave,45247,Cutler Real EST
http://cutlerhomes.com,"Cincinnati, ",http://www.yellowpages.com/search?search_terms=real%20estate%20companies&geo_location_terms=Cincinnati%2C%20OH&page=10,OH,(513) 278-7545,6460 Harrison Ave,45247,3b Realty
http://mvg.com,"Cincinnati, ",http://www.yellowpages.com/search?search_terms=real%20estate%20companies&geo_location_terms=Cincinnati%2C%20OH&page=10,OH,(513) 771-0900,9435 Waterstone Blvd,45249,Miller-Valentine Group
http://mvg.com,"Cincinnati, ",http://www.yellowpages.com/search?search_terms=real%20estate%20companies&geo_location_terms=Cincinnati%2C%20OH&page=10,OH,(513) 528-2657,3848 McMann Rd,45245,Southern Ohio Board of Realtor
http://mvg.com,"Cincinnati, ",http://www.yellowpages.com/search?search_terms=real%20estate%20companies&geo_location_terms=Cincinnati%2C%20OH&page=10,OH,(513) 426-7456,PO Box 18346,45218,Hat Trick Homes
http://cmcproperties.com/apartments/dixnych_hil,"Cincinnati, ",http://www.yellowpages.com/search?search_terms=real%20estate%20companies&geo_location_terms=Cincinnati%2C%20OH&page=10,OH,(513) 221-1333,2587 Fernview Ct,45212,Dixmyth Hills Apartments
http://cmcproperties.com/apartments/dixnych_hil,"Cincinnati, ",http://www.yellowpages.com/search?search_terms=real%20estate%20companies&geo_location_terms=Cincinnati%2C%20OH&page=10,OH,(513) 827-9057,6252 Joyce Ln Apt 1,45237,6252 Joyce
http://cmcproperties.com/apartments/dixnych_hil,"Cincinnati, ",http://www.yellowpages.com/search?search_terms=real%20estate%20companies&geo_location_terms=Cincinnati%2C%20OH&page=10,OH,(513) 351-7368,5254 Ridge Ave # 1,45213,Copper Ridge Realty
http://cmcproperties.com/apartments/dixnych_hil,"Cincinnati, ",http://www.yellowpages.com/search?search_terms=real%20estate%20companies&geo_location_terms=Cincinnati%2C%20OH&page=10,OH,(513) 861-3939,415 Bond Pl # 4C,45206,Kraus Management
http://cmcproperties.com/apartments/dixnych_hil,"Cincinnati, ",http://www.yellowpages.com/search?search_terms=real%20estate%20companies&geo_location_terms=Cincinnati%2C%20OH&page=10,OH,(513) 271-0600,5721 Dragon Way,45227,Premier
http://cmcproperties.com/apartments/dixnych_hil,"Cincinnati, ",http://www.yellowpages.com/search?search_terms=real%20estate%20companies&geo_location_terms=Cincinnati%2C%20OH&page=10,OH,(513) 861-1976,724 Lafayette Ave # 2,45220,Rector & Assoc Inc
http://cmcproperties.com/apartments/dixnych_hil,"Cincinnati, ",http://www.yellowpages.com/search?search_terms=real%20estate%20companies&geo_location_terms=Cincinnati%2C%20OH&page=10,OH,(513) 721-3000,285 Chiquita Center,45202,Joseph Managmt Co
http://cmcproperties.com/apartments/dixnych_hil,"Cincinnati, ",http://www.yellowpages.com/search?search_terms=real%20estate%20companies&geo_location_terms=Cincinnati%2C%20OH&page=10,OH,(513) 561-5800,6901 Wooster Pike,45227,"Shiveley, Sylvia"
http://cmcproperties.com/apartments/dixnych_hil,"Cincinnati, ",http://www.yellowpages.com/search?search_terms=real%20estate%20companies&geo_location_terms=Cincinnati%2C%20OH&page=10,OH,(513) 561-5800,6901 Wooster Pike,45227,"Kathman, Patricia"
http://www.sibcycline.com,"Cincinnati, ",http://www.yellowpages.com/search?search_terms=real%20estate%20companies&geo_location_terms=Cincinnati%2C%20OH&page=10,OH,(513) 985-4010,8044 Montgomery Rd,45236,"Kathman, Patricia"
http://www.sibcycline.com,"Cincinnati, ",http://www.yellowpages.com/search?search_terms=real%20estate%20companies&geo_location_terms=Cincinnati%2C%20OH&page=10,OH,(513) 985-4010,8044 Montgomery Rd,45236,"Kathman, Patricia"
,"Cincinnati, ",http://www.yellowpages.com/search?search_terms=real%20estate%20companies&geo_location_terms=Cincinnati%2C%20OH&page=11,OH,(513) 561-5800,6901 Wooster Pike,45227,"Helton, Ruth"
,"Cincinnati, ",http://www.yellowpages.com/search?search_terms=real%20estate%20companies&geo_location_terms=Cincinnati%2C%20OH&page=11,OH,(513) 561-5800,6901 Wooster Pike,45227,"Ball, Claire"
,"Cincinnati, ",http://www.yellowpages.com/search?search_terms=real%20estate%20companies&geo_location_terms=Cincinnati%2C%20OH&page=11,OH,(513) 561-5800,6901 Wooster Pike,45227,"Naberhaus, Richard"
,"Cincinnati, ",http://www.yellowpages.com/search?search_terms=real%20estate%20companies&geo_location_terms=Cincinnati%2C%20OH&page=11,OH,(513) 561-5800,6901 Wooster Pike,45227,"Searle, Linda"
,"Cincinnati, ",http://www.yellowpages.com/search?search_terms=real%20estate%20companies&geo_location_terms=Cincinnati%2C%20OH&page=11,OH,(513) 561-5800,6901 Wooster Pike,45227,"Blythe, Alana"
,"Cincinnati, ",http://www.yellowpages.com/search?search_terms=real%20estate%20companies&geo_location_terms=Cincinnati%2C%20OH&page=11,OH,(513) 561-5800,6901 Wooster Pike,45227,"Ledwin, Lisa"
,"Cincinnati, ",http://www.yellowpages.com/search?search_terms=real%20estate%20companies&geo_location_terms=Cincinnati%2C%20OH&page=11,OH,(513) 561-5800,6901 Wooster Pike,45227,"Creech, Sherrill"
,"Cincinnati, ",http://www.yellowpages.com/search?search_terms=real%20estate%20companies&geo_location_terms=Cincinnati%2C%20OH&page=11,OH,(513) 561-5800,6901 Wooster Pike,45227,"Amarante, David"
,"Cincinnati, ",http://www.yellowpages.com/search?search_terms=real%20estate%20companies&geo_location_terms=Cincinnati%2C%20OH&page=11,OH,(513) 561-5800,6901 Wooster Pike,45227,"Fanning, Craig"
,"Cincinnati, ",http://www.yellowpages.com/search?search_terms=real%20estate%20companies&geo_location_terms=Cincinnati%2C%20OH&page=11,OH,(513) 561-5800,6901 Wooster Pike,45227,"Feldhaus, Cassandra"
,"Cincinnati, ",http://www.yellowpages.com/search?search_terms=real%20estate%20companies&geo_location_terms=Cincinnati%2C%20OH&page=11,OH,(513) 561-5800,6901 Wooster Pike,45227,"Frank, Cathy"
,"Cincinnati, ",http://www.yellowpages.com/search?search_terms=real%20estate%20companies&geo_location_terms=Cincinnati%2C%20OH&page=11,OH,(513) 561-5800,6901 Wooster Pike,45227,"Sentker, Ted"
,"Cincinnati, ",http://www.yellowpages.com/search?search_terms=real%20estate%20companies&geo_location_terms=Cincinnati%2C%20OH&page=11,OH,(513) 561-5800,6901 Wooster Pike,45227,"Welch, David"
,"Cincinnati, ",http://www.yellowpages.com/search?search_terms=real%20estate%20companies&geo_location_terms=Cincinnati%2C%20OH&page=11,OH,(513) 561-5800,6901 Wooster Pike,45227,"Wikette, Mathias"
,"Cincinnati, ",http://www.yellowpages.com/search?search_terms=real%20estate%20companies&geo_location_terms=Cincinnati%2C%20OH&page=11,OH,(513) 561-5800,6901 Wooster Pike,45227,"Wittlin, Judith"
,"Cincinnati, ",http://www.yellowpages.com/search?search_terms=real%20estate%20companies&geo_location_terms=Cincinnati%2C%20OH&page=11,OH,(513) 561-5800,6901 Wooster Pike,45227,"Aust, Ralph"
,"Cincinnati, ",http://www.yellowpages.com/search?search_terms=real%20estate%20companies&geo_location_terms=Cincinnati%2C%20OH&page=11,OH,(513) 561-5800,6901 Wooster Pike,45227,"Bradford, Elaine"
,"Cincinnati, ",http://www.yellowpages.com/search?search_terms=real%20estate%20companies&geo_location_terms=Cincinnati%2C%20OH&page=11,OH,(513) 561-5800,6901 Wooster Pike,45227,"Congbalay, Dean"
,"Cincinnati, ",http://www.yellowpages.com/search?search_terms=real%20estate%20companies&geo_location_terms=Cincinnati%2C%20OH&page=11,OH,(513) 561-5800,6901 Wooster Pike,45227,"Huelskamp, Marian"
,"Cincinnati, ",http://www.yellowpages.com/search?search_terms=real%20estate%20companies&geo_location_terms=Cincinnati%2C%20OH&page=11,OH,(513) 561-5800,6901 Wooster Pike,45227,"Kuhr, Dick"
,"Cincinnati, ",http://www.yellowpages.com/search?search_terms=real%20estate%20companies&geo_location_terms=Cincinnati%2C%20OH&page=11,OH,(513) 561-5800,6901 Wooster Pike,45227,"Lafrance, Debra"
,"Cincinnati, ",http://www.yellowpages.com/search?search_terms=real%20estate%20companies&geo_location_terms=Cincinnati%2C%20OH&page=11,OH,(513) 561-5800,6901 Wooster Pike,45227,"Lefton, Richard"
,"Cincinnati, ",http://www.yellowpages.com/search?search_terms=real%20estate%20companies&geo_location_terms=Cincinnati%2C%20OH&page=11,OH,(513) 561-5800,6901 Wooster Pike,45227,"Willis, Beth"
,"Cincinnati, ",http://www.yellowpages.com/search?search_terms=real%20estate%20companies&geo_location_terms=Cincinnati%2C%20OH&page=11,OH,(513) 561-5800,6901 Wooster Pike,45227,"Matlock, Donna"
,"Cincinnati, ",http://www.yellowpages.com/search?search_terms=real%20estate%20companies&geo_location_terms=Cincinnati%2C%20OH&page=11,OH,(513) 561-5800,6901 Wooster Pike,45227,"Pruitt, Julie"
,"Cincinnati, ",http://www.yellowpages.com/search?search_terms=real%20estate%20companies&geo_location_terms=Cincinnati%2C%20OH&page=11,OH,(513) 561-5800,6901 Wooster Pike,45227,"Sangtani, Priya"
,"Cincinnati, ",http://www.yellowpages.com/search?search_terms=real%20estate%20companies&geo_location_terms=Cincinnati%2C%20OH&page=11,OH,(513) 561-5800,6901 Wooster Pike,45227,"Wetterer, Robert"
,"Cincinnati, ",http://www.yellowpages.com/search?search_terms=real%20estate%20companies&geo_location_terms=Cincinnati%2C%20OH&page=11,OH,(513) 561-5800,6901 Wooster Pike,45227,"White, Bud"
,"Cincinnati, ",http://www.yellowpages.com/search?search_terms=real%20estate%20companies&geo_location_terms=Cincinnati%2C%20OH&page=11,OH,(513) 561-5800,6901 Wooster Pike,45227,"Coulter, Emma"
,"Cincinnati, ",http://www.yellowpages.com/search?search_terms=real%20estate%20companies&geo_location_terms=Cincinnati%2C%20OH&page=11,OH,(513) 561-5800,6901 Wooster Pike,45227,"Dulle, Karen"
http://www.sibcycline.com,"Cincinnati, ",http://www.yellowpages.com/search?search_terms=real%20estate%20companies&geo_location_terms=Cincinnati%2C%20OH&page=11,OH,(513) 985-4010,8044 Montgomery Rd,45236,"Dulle, Karen"
http://www.sibcycline.com,"Cincinnati, ",http://www.yellowpages.com/search?search_terms=real%20estate%20companies&geo_location_terms=Cincinnati%2C%20OH&page=11,OH,(513) 985-4010,8044 Montgomery Rd,45236,"Dulle, Karen"
,"Cincinnati, ",http://www.yellowpages.com/search?search_terms=real%20estate%20companies&geo_location_terms=Cincinnati%2C%20OH&page=12,OH,(513) 561-5800,6901 Wooster Pike,45227,"Durso, John"
,"Cincinnati, ",http://www.yellowpages.com/search?search_terms=real%20estate%20companies&geo_location_terms=Cincinnati%2C%20OH&page=12,OH,(513) 561-5800,6901 Wooster Pike,45227,"Hall, Denise"
,"Cincinnati, ",http://www.yellowpages.com/search?search_terms=real%20estate%20companies&geo_location_terms=Cincinnati%2C%20OH&page=12,OH,(513) 561-5800,6901 Wooster Pike,45227,"Harpold, Donna"
,"Cincinnati, ",http://www.yellowpages.com/search?search_terms=real%20estate%20companies&geo_location_terms=Cincinnati%2C%20OH&page=12,OH,(513) 561-5800,6901 Wooster Pike,45227,"Kottner, Eric"
,"Cincinnati, ",http://www.yellowpages.com/search?search_terms=real%20estate%20companies&geo_location_terms=Cincinnati%2C%20OH&page=12,OH,(513) 561-5800,6901 Wooster Pike,45227,"Kristal, Laura"
,"Cincinnati, ",http://www.yellowpages.com/search?search_terms=real%20estate%20companies&geo_location_terms=Cincinnati%2C%20OH&page=12,OH,(513) 561-5800,6901 Wooster Pike,45227,"Louis, Roderick"
,"Cincinnati, ",http://www.yellowpages.com/search?search_terms=real%20estate%20companies&geo_location_terms=Cincinnati%2C%20OH&page=12,OH,(513) 561-5800,6901 Wooster Pike,45227,"Lucas, Larry"
,"Cincinnati, ",http://www.yellowpages.com/search?search_terms=real%20estate%20companies&geo_location_terms=Cincinnati%2C%20OH&page=12,OH,(513) 561-5800,6901 Wooster Pike,45227,"Manibusan, Rose"
,"Cincinnati, ",http://www.yellowpages.com/search?search_terms=real%20estate%20companies&geo_location_terms=Cincinnati%2C%20OH&page=12,OH,(513) 561-5800,6901 Wooster Pike,45227,"Arnold-Siefrin, Shirley"
,"Cincinnati, ",http://www.yellowpages.com/search?search_terms=real%20estate%20companies&geo_location_terms=Cincinnati%2C%20OH&page=12,OH,(513) 561-5800,6901 Wooster Pike,45227,"Bauer, Jessica"
,"Cincinnati, ",http://www.yellowpages.com/search?search_terms=real%20estate%20companies&geo_location_terms=Cincinnati%2C%20OH&page=12,OH,(513) 561-5800,6901 Wooster Pike,45227,"Blair, Sondra"
,"Cincinnati, ",http://www.yellowpages.com/search?search_terms=real%20estate%20companies&geo_location_terms=Cincinnati%2C%20OH&page=12,OH,(513) 561-5800,6901 Wooster Pike,45227,"Carpenter, James"
,"Cincinnati, ",http://www.yellowpages.com/search?search_terms=real%20estate%20companies&geo_location_terms=Cincinnati%2C%20OH&page=12,OH,(513) 561-5800,6901 Wooster Pike,45227,"Fricke, Eugene"
,"Cincinnati, ",http://www.yellowpages.com/search?search_terms=real%20estate%20companies&geo_location_terms=Cincinnati%2C%20OH&page=12,OH,(513) 561-5800,6901 Wooster Pike,45227,"Fry, Addison"
,"Cincinnati, ",http://www.yellowpages.com/search?search_terms=real%20estate%20companies&geo_location_terms=Cincinnati%2C%20OH&page=12,OH,(513) 561-5800,6901 Wooster Pike,45227,"Gillman, Teri"
,"Cincinnati, ",http://www.yellowpages.com/search?search_terms=real%20estate%20companies&geo_location_terms=Cincinnati%2C%20OH&page=12,OH,(513) 561-5800,6901 Wooster Pike,45227,"Konicov, Spencer"
,"Cincinnati, ",http://www.yellowpages.com/search?search_terms=real%20estate%20companies&geo_location_terms=Cincinnati%2C%20OH&page=12,OH,(513) 561-5800,6901 Wooster Pike,45227,"Lower, Wes"
,"Cincinnati, ",http://www.yellowpages.com/search?search_terms=real%20estate%20companies&geo_location_terms=Cincinnati%2C%20OH&page=12,OH,(513) 561-5800,6901 Wooster Pike,45227,"Newman, June"
,"Cincinnati, ",http://www.yellowpages.com/search?search_terms=real%20estate%20companies&geo_location_terms=Cincinnati%2C%20OH&page=12,OH,(513) 561-5800,6901 Wooster Pike,45227,"Pizzimenti, Karen"
,"Cincinnati, ",http://www.yellowpages.com/search?search_terms=real%20estate%20companies&geo_location_terms=Cincinnati%2C%20OH&page=12,OH,(513) 561-5800,6901 Wooster Pike,45227,"Ronney, Willa"
,"Cincinnati, ",http://www.yellowpages.com/search?search_terms=real%20estate%20companies&geo_location_terms=Cincinnati%2C%20OH&page=12,OH,(513) 561-5800,6901 Wooster Pike,45227,"Vitale, William"
,"Cincinnati, ",http://www.yellowpages.com/search?search_terms=real%20estate%20companies&geo_location_terms=Cincinnati%2C%20OH&page=12,OH,(513) 561-5800,6901 Wooster Pike,45227,"Welage, Gloria"
,"Cincinnati, ",http://www.yellowpages.com/search?search_terms=real%20estate%20companies&geo_location_terms=Cincinnati%2C%20OH&page=12,OH,(513) 561-5800,6901 Wooster Pike,45227,"Dragul, Carol"
,"Cincinnati, ",http://www.yellowpages.com/search?search_terms=real%20estate%20companies&geo_location_terms=Cincinnati%2C%20OH&page=12,OH,(513) 561-5800,6901 Wooster Pike,45227,"Hughes, Kim"
,"Cincinnati, ",http://www.yellowpages.com/search?search_terms=real%20estate%20companies&geo_location_terms=Cincinnati%2C%20OH&page=12,OH,(513) 561-5800,6901 Wooster Pike,45227,"Literski, Diane"
,"Cincinnati, ",http://www.yellowpages.com/search?search_terms=real%20estate%20companies&geo_location_terms=Cincinnati%2C%20OH&page=12,OH,(513) 561-5800,6901 Wooster Pike,45227,"Manzler, Annabelle"
,"Cincinnati, ",http://www.yellowpages.com/search?search_terms=real%20estate%20companies&geo_location_terms=Cincinnati%2C%20OH&page=12,OH,(513) 561-5800,6901 Wooster Pike,45227,"Norwood, Joy"
,"Cincinnati, ",http://www.yellowpages.com/search?search_terms=real%20estate%20companies&geo_location_terms=Cincinnati%2C%20OH&page=12,OH,(513) 561-5800,6901 Wooster Pike,45227,"Hubert, Brian"
,"Cincinnati, ",http://www.yellowpages.com/search?search_terms=real%20estate%20companies&geo_location_terms=Cincinnati%2C%20OH&page=12,OH,(513) 561-5800,6901 Wooster Pike,45227,"Bennett, Keith"
,"Cincinnati, ",http://www.yellowpages.com/search?search_terms=real%20estate%20companies&geo_location_terms=Cincinnati%2C%20OH&page=12,OH,(513) 561-5800,6901 Wooster Pike,45227,"Volpenhein, E"
http://www.sibcycline.com,"Cincinnati, ",http://www.yellowpages.com/search?search_terms=real%20estate%20companies&geo_location_terms=Cincinnati%2C%20OH&page=12,OH,(513) 985-4010,8044 Montgomery Rd,45236,"Volpenhein, E"
http://www.sibcycline.com,"Cincinnati, ",http://www.yellowpages.com/search?search_terms=real%20estate%20companies&geo_location_terms=Cincinnati%2C%20OH&page=12,OH,(513) 985-4010,8044 Montgomery Rd,45236,"Volpenhein, E"
,"Cincinnati, ",http://www.yellowpages.com/search?search_terms=real%20estate%20companies&geo_location_terms=Cincinnati%2C%20OH&page=13,OH,(513) 561-5800,6901 Wooster Pike,45227,"Wu, May"
,"Cincinnati, ",http://www.yellowpages.com/search?search_terms=real%20estate%20companies&geo_location_terms=Cincinnati%2C%20OH&page=13,OH,(513) 561-5800,6901 Wooster Pike,45227,"Marvin, Matt"
,"Cincinnati, ",http://www.yellowpages.com/search?search_terms=real%20estate%20companies&geo_location_terms=Cincinnati%2C%20OH&page=13,OH,(513) 561-5800,6901 Wooster Pike,45227,"Stevenson, Florence"
,"Cincinnati, ",http://www.yellowpages.com/search?search_terms=real%20estate%20companies&geo_location_terms=Cincinnati%2C%20OH&page=13,OH,(513) 561-5800,6901 Wooster Pike,45227,"Wolking, Jack"
,"Cincinnati, ",http://www.yellowpages.com/search?search_terms=real%20estate%20companies&geo_location_terms=Cincinnati%2C%20OH&page=13,OH,(513) 561-5800,6901 Wooster Pike,45227,"Montgomery Jr, Bruce"
,"Cincinnati, ",http://www.yellowpages.com/search?search_terms=real%20estate%20companies&geo_location_terms=Cincinnati%2C%20OH&page=13,OH,(513) 561-5800,6901 Wooster Pike,45227,"Murphy-Slater, Tammara"
,"Cincinnati, ",http://www.yellowpages.com/search?search_terms=real%20estate%20companies&geo_location_terms=Cincinnati%2C%20OH&page=13,OH,(513) 561-5800,6901 Wooster Pike,45227,"Grauel, Frederick"
,"Cincinnati, ",http://www.yellowpages.com/search?search_terms=real%20estate%20companies&geo_location_terms=Cincinnati%2C%20OH&page=13,OH,(513) 561-5800,6901 Wooster Pike,45227,"Osborn, Monika"
,"Cincinnati, ",http://www.yellowpages.com/search?search_terms=real%20estate%20companies&geo_location_terms=Cincinnati%2C%20OH&page=13,OH,(513) 561-5800,6901 Wooster Pike,45227,"Payne, Arnee"
,"Cincinnati, ",http://www.yellowpages.com/search?search_terms=real%20estate%20companies&geo_location_terms=Cincinnati%2C%20OH&page=13,OH,(513) 561-5800,6901 Wooster Pike,45227,"Peck, George"
,"Cincinnati, ",http://www.yellowpages.com/search?search_terms=real%20estate%20companies&geo_location_terms=Cincinnati%2C%20OH&page=13,OH,(513) 561-5800,6901 Wooster Pike,45227,"Lundin, Katarina"
,"Cincinnati, ",http://www.yellowpages.com/search?search_terms=real%20estate%20companies&geo_location_terms=Cincinnati%2C%20OH&page=13,OH,(513) 561-5800,6901 Wooster Pike,45227,"Nightingale, Timothy"
,"Cincinnati, ",http://www.yellowpages.com/search?search_terms=real%20estate%20companies&geo_location_terms=Cincinnati%2C%20OH&page=13,OH,(513) 561-5800,6901 Wooster Pike,45227,"Sampson, Shirley"
,"Cincinnati, ",http://www.yellowpages.com/search?search_terms=real%20estate%20companies&geo_location_terms=Cincinnati%2C%20OH&page=13,OH,(513) 561-5800,6901 Wooster Pike,45227,"Ward, Paddy"
,"Cincinnati, ",http://www.yellowpages.com/search?search_terms=real%20estate%20companies&geo_location_terms=Cincinnati%2C%20OH&page=13,OH,(513) 561-5800,6901 Wooster Pike,45227,"Schnettler, Jennifer"
,"Cincinnati, ",http://www.yellowpages.com/search?search_terms=real%20estate%20companies&geo_location_terms=Cincinnati%2C%20OH&page=13,OH,(513) 561-5800,6901 Wooster Pike,45227,"Streit, Gloria"
,"Cincinnati, ",http://www.yellowpages.com/search?search_terms=real%20estate%20companies&geo_location_terms=Cincinnati%2C%20OH&page=13,OH,(513) 561-5800,6901 Wooster Pike,45227,"Wieland, Tracy"
,"Cincinnati, ",http://www.yellowpages.com/search?search_terms=real%20estate%20companies&geo_location_terms=Cincinnati%2C%20OH&page=13,OH,(513) 561-5800,6901 Wooster Pike,45227,"Barnum, Jeffery"
,"Cincinnati, ",http://www.yellowpages.com/search?search_terms=real%20estate%20companies&geo_location_terms=Cincinnati%2C%20OH&page=13,OH,(513) 561-5800,6901 Wooster Pike,45227,"Hatt, Earl"
,"Cincinnati, ",http://www.yellowpages.com/search?search_terms=real%20estate%20companies&geo_location_terms=Cincinnati%2C%20OH&page=13,OH,(513) 561-5800,6901 Wooster Pike,45227,"Dorger, Bob"
,"Cincinnati, ",http://www.yellowpages.com/search?search_terms=real%20estate%20companies&geo_location_terms=Cincinnati%2C%20OH&page=13,OH,(513) 561-5800,6901 Wooster Pike,45227,"Driscoll, Todd"
,"Cincinnati, ",http://www.yellowpages.com/search?search_terms=real%20estate%20companies&geo_location_terms=Cincinnati%2C%20OH&page=13,OH,(513) 561-5800,6901 Wooster Pike,45227,"Lemon, Sharon"
,"Cincinnati, ",http://www.yellowpages.com/search?search_terms=real%20estate%20companies&geo_location_terms=Cincinnati%2C%20OH&page=13,OH,(513) 561-5800,6901 Wooster Pike,45227,"Gamblin, Donna"
,"Cincinnati, ",http://www.yellowpages.com/search?search_terms=real%20estate%20companies&geo_location_terms=Cincinnati%2C%20OH&page=13,OH,(513) 561-5800,6901 Wooster Pike,45227,"Slattery, Kevin"
,"Cincinnati, ",http://www.yellowpages.com/search?search_terms=real%20estate%20companies&geo_location_terms=Cincinnati%2C%20OH&page=13,OH,(513) 561-5800,6901 Wooster Pike,45227,"Stutzman, Jami"
,"Cincinnati, ",http://www.yellowpages.com/search?search_terms=real%20estate%20companies&geo_location_terms=Cincinnati%2C%20OH&page=13,OH,(513) 561-5800,6901 Wooster Pike,45227,"Herr, Heather"
,"Cincinnati, ",http://www.yellowpages.com/search?search_terms=real%20estate%20companies&geo_location_terms=Cincinnati%2C%20OH&page=13,OH,(513) 561-5800,6901 Wooster Pike,45227,"Sullivan, Ellen"
,"Cincinnati, ",http://www.yellowpages.com/search?search_terms=real%20estate%20companies&geo_location_terms=Cincinnati%2C%20OH&page=13,OH,(513) 561-5800,6901 Wooster Pike,45227,"Hyde, Mona"
,"Cincinnati, ",http://www.yellowpages.com/search?search_terms=real%20estate%20companies&geo_location_terms=Cincinnati%2C%20OH&page=13,OH,(513) 561-5800,6901 Wooster Pike,45227,"Kissel, Pamela"
,"Cincinnati, ",http://www.yellowpages.com/search?search_terms=real%20estate%20companies&geo_location_terms=Cincinnati%2C%20OH&page=13,OH,(513) 561-5800,6901 Wooster Pike,45227,"Rushford, Douglas"
http://www.sibcycline.com,"Cincinnati, ",http://www.yellowpages.com/search?search_terms=real%20estate%20companies&geo_location_terms=Cincinnati%2C%20OH&page=13,OH,(513) 985-4010,8044 Montgomery Rd,45236,"Rushford, Douglas"
http://www.sibcycline.com,"Cincinnati, ",http://www.yellowpages.com/search?search_terms=real%20estate%20companies&geo_location_terms=Cincinnati%2C%20OH&page=13,OH,(513) 985-4010,8044 Montgomery Rd,45236,"Rushford, Douglas"
,"Cincinnati, ",http://www.yellowpages.com/search?search_terms=real%20estate%20companies&geo_location_terms=Cincinnati%2C%20OH&page=14,OH,(513) 561-5800,6901 Wooster Pike,45227,"Stylski, Michael"
,"Cincinnati, ",http://www.yellowpages.com/search?search_terms=real%20estate%20companies&geo_location_terms=Cincinnati%2C%20OH&page=14,OH,(513) 561-5800,6901 Wooster Pike,45227,"Tansy, Donna"
,"Cincinnati, ",http://www.yellowpages.com/search?search_terms=real%20estate%20companies&geo_location_terms=Cincinnati%2C%20OH&page=14,OH,(513) 561-5800,6901 Wooster Pike,45227,"Tsolometes, Maria"
,"Cincinnati, ",http://www.yellowpages.com/search?search_terms=real%20estate%20companies&geo_location_terms=Cincinnati%2C%20OH&page=14,OH,(513) 561-5800,6901 Wooster Pike,45227,"Zamagias, Anna"
,"Cincinnati, ",http://www.yellowpages.com/search?search_terms=real%20estate%20companies&geo_location_terms=Cincinnati%2C%20OH&page=14,OH,(513) 561-5800,6901 Wooster Pike,45227,"Blenk, Molly"
,"Cincinnati, ",http://www.yellowpages.com/search?search_terms=real%20estate%20companies&geo_location_terms=Cincinnati%2C%20OH&page=14,OH,(513) 561-5800,6901 Wooster Pike,45227,"Ferrall, Edmund"
,"Cincinnati, ",http://www.yellowpages.com/search?search_terms=real%20estate%20companies&geo_location_terms=Cincinnati%2C%20OH&page=14,OH,(513) 561-5800,6901 Wooster Pike,45227,"McKeen, Candice"
,"Cincinnati, ",http://www.yellowpages.com/search?search_terms=real%20estate%20companies&geo_location_terms=Cincinnati%2C%20OH&page=14,OH,(513) 561-5800,6901 Wooster Pike,45227,"Meyer, Anthony"
,"Cincinnati, ",http://www.yellowpages.com/search?search_terms=real%20estate%20companies&geo_location_terms=Cincinnati%2C%20OH&page=14,OH,(513) 561-5800,6901 Wooster Pike,45227,"Poole Jr, James"
,"Cincinnati, ",http://www.yellowpages.com/search?search_terms=real%20estate%20companies&geo_location_terms=Cincinnati%2C%20OH&page=14,OH,(513) 561-5800,6901 Wooster Pike,45227,"Radcliffe, Cynthia"
,"Cincinnati, ",http://www.yellowpages.com/search?search_terms=real%20estate%20companies&geo_location_terms=Cincinnati%2C%20OH&page=14,OH,(513) 561-5800,6901 Wooster Pike,45227,"Rait, Robert"
,"Cincinnati, ",http://www.yellowpages.com/search?search_terms=real%20estate%20companies&geo_location_terms=Cincinnati%2C%20OH&page=14,OH,(513) 561-5800,6901 Wooster Pike,45227,"Swallow, Martha"
,"Cincinnati, ",http://www.yellowpages.com/search?search_terms=real%20estate%20companies&geo_location_terms=Cincinnati%2C%20OH&page=14,OH,(513) 561-5800,6901 Wooster Pike,45227,"Bocklet, Albert"
,"Cincinnati, ",http://www.yellowpages.com/search?search_terms=real%20estate%20companies&geo_location_terms=Cincinnati%2C%20OH&page=14,OH,(513) 561-5800,6901 Wooster Pike,45227,"Coletta, Aimee"
,"Cincinnati, ",http://www.yellowpages.com/search?search_terms=real%20estate%20companies&geo_location_terms=Cincinnati%2C%20OH&page=14,OH,(513) 561-5800,6901 Wooster Pike,45227,"Courtot, Leah"
,"Cincinnati, ",http://www.yellowpages.com/search?search_terms=real%20estate%20companies&geo_location_terms=Cincinnati%2C%20OH&page=14,OH,(513) 561-5800,6901 Wooster Pike,45227,"Dubell-Smith, Gina"
,"Cincinnati, ",http://www.yellowpages.com/search?search_terms=real%20estate%20companies&geo_location_terms=Cincinnati%2C%20OH&page=14,OH,(513) 561-5800,6901 Wooster Pike,45227,"Dugan, Jill"
,"Cincinnati, ",http://www.yellowpages.com/search?search_terms=real%20estate%20companies&geo_location_terms=Cincinnati%2C%20OH&page=14,OH,(513) 561-5800,6901 Wooster Pike,45227,"Farley, Jiles"
,"Cincinnati, ",http://www.yellowpages.com/search?search_terms=real%20estate%20companies&geo_location_terms=Cincinnati%2C%20OH&page=14,OH,(513) 561-5800,6901 Wooster Pike,45227,"James, Tracey"
,"Cincinnati, ",http://www.yellowpages.com/search?search_terms=real%20estate%20companies&geo_location_terms=Cincinnati%2C%20OH&page=14,OH,(513) 561-5800,6901 Wooster Pike,45227,"Pusateri, Angelo"
,"Cincinnati, ",http://www.yellowpages.com/search?search_terms=real%20estate%20companies&geo_location_terms=Cincinnati%2C%20OH&page=14,OH,(513) 561-5800,6901 Wooster Pike,45227,"Rowe, Zona"
,"Cincinnati, ",http://www.yellowpages.com/search?search_terms=real%20estate%20companies&geo_location_terms=Cincinnati%2C%20OH&page=14,OH,(513) 561-5800,6901 Wooster Pike,45227,"Sharma, Gregory"
,"Cincinnati, ",http://www.yellowpages.com/search?search_terms=real%20estate%20companies&geo_location_terms=Cincinnati%2C%20OH&page=14,OH,(513) 561-5800,6901 Wooster Pike,45227,"Stabins, Julie"
,"Cincinnati, ",http://www.yellowpages.com/search?search_terms=real%20estate%20companies&geo_location_terms=Cincinnati%2C%20OH&page=14,OH,(513) 561-5800,6901 Wooster Pike,45227,"Stoots, Ruth"
,"Cincinnati, ",http://www.yellowpages.com/search?search_terms=real%20estate%20companies&geo_location_terms=Cincinnati%2C%20OH&page=14,OH,(513) 561-5800,6901 Wooster Pike,45227,"Tieman, John"
,"Cincinnati, ",http://www.yellowpages.com/search?search_terms=real%20estate%20companies&geo_location_terms=Cincinnati%2C%20OH&page=14,OH,(513) 561-5800,6901 Wooster Pike,45227,"Wessling, Beth"
,"Cincinnati, ",http://www.yellowpages.com/search?search_terms=real%20estate%20companies&geo_location_terms=Cincinnati%2C%20OH&page=14,OH,(513) 561-5800,6901 Wooster Pike,45227,"Baumann, Melinda"
,"Cincinnati, ",http://www.yellowpages.com/search?search_terms=real%20estate%20companies&geo_location_terms=Cincinnati%2C%20OH&page=14,OH,(513) 561-5800,6901 Wooster Pike,45227,"Clough, Anthony"
,"Cincinnati, ",http://www.yellowpages.com/search?search_terms=real%20estate%20companies&geo_location_terms=Cincinnati%2C%20OH&page=14,OH,(513) 561-5800,6901 Wooster Pike,45227,"Costello, Joan"
,"Cincinnati, ",http://www.yellowpages.com/search?search_terms=real%20estate%20companies&geo_location_terms=Cincinnati%2C%20OH&page=14,OH,(513) 561-5800,6901 Wooster Pike,45227,"Dunhouse, Lisa"
http://www.sibcycline.com,"Cincinnati, ",http://www.yellowpages.com/search?search_terms=real%20estate%20companies&geo_location_terms=Cincinnati%2C%20OH&page=14,OH,(513) 985-4010,8044 Montgomery Rd,45236,"Dunhouse, Lisa"
http://www.sibcycline.com,"Cincinnati, ",http://www.yellowpages.com/search?search_terms=real%20estate%20companies&geo_location_terms=Cincinnati%2C%20OH&page=14,OH,(513) 985-4010,8044 Montgomery Rd,45236,"Dunhouse, Lisa"
,"Cincinnati, ",http://www.yellowpages.com/search?search_terms=real%20estate%20companies&geo_location_terms=Cincinnati%2C%20OH&page=15,OH,(513) 561-5800,6901 Wooster Pike,45227,"Goolsby, Reginald"
,"Cincinnati, ",http://www.yellowpages.com/search?search_terms=real%20estate%20companies&geo_location_terms=Cincinnati%2C%20OH&page=15,OH,(513) 561-5800,6901 Wooster Pike,45227,"Greenberg, Barbara"
,"Cincinnati, ",http://www.yellowpages.com/search?search_terms=real%20estate%20companies&geo_location_terms=Cincinnati%2C%20OH&page=15,OH,(513) 561-5800,6901 Wooster Pike,45227,"Boggess, John"
,"Cincinnati, ",http://www.yellowpages.com/search?search_terms=real%20estate%20companies&geo_location_terms=Cincinnati%2C%20OH&page=15,OH,(513) 561-5800,6901 Wooster Pike,45227,"Haddix, Ginger"
,"Cincinnati, ",http://www.yellowpages.com/search?search_terms=real%20estate%20companies&geo_location_terms=Cincinnati%2C%20OH&page=15,OH,(513) 561-5800,6901 Wooster Pike,45227,"Comisar, Kathy"
,"Cincinnati, ",http://www.yellowpages.com/search?search_terms=real%20estate%20companies&geo_location_terms=Cincinnati%2C%20OH&page=15,OH,(513) 561-5800,6901 Wooster Pike,45227,"Houston, Misha"
,"Cincinnati, ",http://www.yellowpages.com/search?search_terms=real%20estate%20companies&geo_location_terms=Cincinnati%2C%20OH&page=15,OH,(513) 561-5800,6901 Wooster Pike,45227,"Karrick, Ed"
,"Cincinnati, ",http://www.yellowpages.com/search?search_terms=real%20estate%20companies&geo_location_terms=Cincinnati%2C%20OH&page=15,OH,(513) 561-5800,6901 Wooster Pike,45227,"Kreps, Jared"
,"Cincinnati, ",http://www.yellowpages.com/search?search_terms=real%20estate%20companies&geo_location_terms=Cincinnati%2C%20OH&page=15,OH,(513) 561-5800,6901 Wooster Pike,45227,"Lilly, Joseph"
,"Cincinnati, ",http://www.yellowpages.com/search?search_terms=real%20estate%20companies&geo_location_terms=Cincinnati%2C%20OH&page=15,OH,(513) 561-5800,6901 Wooster Pike,45227,"McCoy, Judith"
,"Cincinnati, ",http://www.yellowpages.com/search?search_terms=real%20estate%20companies&geo_location_terms=Cincinnati%2C%20OH&page=15,OH,(513) 561-5800,6901 Wooster Pike,45227,"Sternberg, Paul"
,"Cincinnati, ",http://www.yellowpages.com/search?search_terms=real%20estate%20companies&geo_location_terms=Cincinnati%2C%20OH&page=15,OH,(513) 561-5800,6901 Wooster Pike,45227,"Weisberger, S"
,"Cincinnati, ",http://www.yellowpages.com/search?search_terms=real%20estate%20companies&geo_location_terms=Cincinnati%2C%20OH&page=15,OH,(513) 561-5800,6901 Wooster Pike,45227,"Brinkmeier, Diane"
,"Cincinnati, ",http://www.yellowpages.com/search?search_terms=real%20estate%20companies&geo_location_terms=Cincinnati%2C%20OH&page=15,OH,(513) 561-5800,6901 Wooster Pike,45227,"Diss, Joseph"
,"Cincinnati, ",http://www.yellowpages.com/search?search_terms=real%20estate%20companies&geo_location_terms=Cincinnati%2C%20OH&page=15,OH,(513) 561-5800,6901 Wooster Pike,45227,"Fantini, Colleen"
,"Cincinnati, ",http://www.yellowpages.com/search?search_terms=real%20estate%20companies&geo_location_terms=Cincinnati%2C%20OH&page=15,OH,(513) 561-5800,6901 Wooster Pike,45227,"Hood, Victoria"
,"Cincinnati, ",http://www.yellowpages.com/search?search_terms=real%20estate%20companies&geo_location_terms=Cincinnati%2C%20OH&page=15,OH,(513) 561-5800,6901 Wooster Pike,45227,"Tepe, Anne"
,"Cincinnati, ",http://www.yellowpages.com/search?search_terms=real%20estate%20companies&geo_location_terms=Cincinnati%2C%20OH&page=15,OH,(513) 561-5800,6901 Wooster Pike,45227,"Theile, Gail"
,"Cincinnati, ",http://www.yellowpages.com/search?search_terms=real%20estate%20companies&geo_location_terms=Cincinnati%2C%20OH&page=15,OH,(513) 561-5800,6901 Wooster Pike,45227,"Webb, Roy"
,"Cincinnati, ",http://www.yellowpages.com/search?search_terms=real%20estate%20companies&geo_location_terms=Cincinnati%2C%20OH&page=15,OH,(513) 561-5800,6901 Wooster Pike,45227,"Eagan, Debbie"
,"Cincinnati, ",http://www.yellowpages.com/search?search_terms=real%20estate%20companies&geo_location_terms=Cincinnati%2C%20OH&page=15,OH,(513) 561-5800,6901 Wooster Pike,45227,"McCauley, Sarah"
,"Cincinnati, ",http://www.yellowpages.com/search?search_terms=real%20estate%20companies&geo_location_terms=Cincinnati%2C%20OH&page=15,OH,(513) 561-5800,6901 Wooster Pike,45227,"Hambene, De"
,"Cincinnati, ",http://www.yellowpages.com/search?search_terms=real%20estate%20companies&geo_location_terms=Cincinnati%2C%20OH&page=15,OH,(513) 561-5800,6901 Wooster Pike,45227,"Mestemaker, Crystal"
,"Cincinnati, ",http://www.yellowpages.com/search?search_terms=real%20estate%20companies&geo_location_terms=Cincinnati%2C%20OH&page=15,OH,(513) 561-5800,6901 Wooster Pike,45227,"Hauser, Brenda"
,"Cincinnati, ",http://www.yellowpages.com/search?search_terms=real%20estate%20companies&geo_location_terms=Cincinnati%2C%20OH&page=15,OH,(513) 561-5800,6901 Wooster Pike,45227,"Moritz, Joseph"
,"Cincinnati, ",http://www.yellowpages.com/search?search_terms=real%20estate%20companies&geo_location_terms=Cincinnati%2C%20OH&page=15,OH,(513) 489-2100,6901 Wooster Pike,45227,"Sunnenberg, Donna"
,"Cincinnati, ",http://www.yellowpages.com/search?search_terms=real%20estate%20companies&geo_location_terms=Cincinnati%2C%20OH&page=15,OH,(513) 561-5800,6901 Wooster Pike,45227,"Sasser, William"
,"Cincinnati, ",http://www.yellowpages.com/search?search_terms=real%20estate%20companies&geo_location_terms=Cincinnati%2C%20OH&page=15,OH,(513) 561-5800,6901 Wooster Pike,45227,"Vanpelt, James"
,"Cincinnati, ",http://www.yellowpages.com/search?search_terms=real%20estate%20companies&geo_location_terms=Cincinnati%2C%20OH&page=15,OH,(513) 561-5800,6901 Wooster Pike,45227,"Whittelsey, Deborah"
,"Cincinnati, ",http://www.yellowpages.com/search?search_terms=real%20estate%20companies&geo_location_terms=Cincinnati%2C%20OH&page=15,OH,(513) 561-5800,6901 Wooster Pike,45227,"Buckley, Carol"
http://www.sibcycline.com,"Cincinnati, ",http://www.yellowpages.com/search?search_terms=real%20estate%20companies&geo_location_terms=Cincinnati%2C%20OH&page=15,OH,(513) 985-4010,8044 Montgomery Rd,45236,"Buckley, Carol"
http://www.sibcycline.com,"Cincinnati, ",http://www.yellowpages.com/search?search_terms=real%20estate%20companies&geo_location_terms=Cincinnati%2C%20OH&page=15,OH,(513) 985-4010,8044 Montgomery Rd,45236,"Buckley, Carol"
,"Cincinnati, ",http://www.yellowpages.com/search?search_terms=real%20estate%20companies&geo_location_terms=Cincinnati%2C%20OH&page=16,OH,(513) 561-5800,6901 Wooster Pike,45227,"Buechly, Sheryl"
,"Cincinnati, ",http://www.yellowpages.com/search?search_terms=real%20estate%20companies&geo_location_terms=Cincinnati%2C%20OH&page=16,OH,(513) 561-5800,6901 Wooster Pike,45227,"Feagles, Sharon"
,"Cincinnati, ",http://www.yellowpages.com/search?search_terms=real%20estate%20companies&geo_location_terms=Cincinnati%2C%20OH&page=16,OH,(513) 561-5800,6901 Wooster Pike,45227,"Hoover, Paula"
,"Cincinnati, ",http://www.yellowpages.com/search?search_terms=real%20estate%20companies&geo_location_terms=Cincinnati%2C%20OH&page=16,OH,(513) 561-5800,6901 Wooster Pike,45227,"Kraemer, Laura"
,"Cincinnati, ",http://www.yellowpages.com/search?search_terms=real%20estate%20companies&geo_location_terms=Cincinnati%2C%20OH&page=16,OH,(513) 561-5800,6901 Wooster Pike,45227,"Richmond, James"
,"Cincinnati, ",http://www.yellowpages.com/search?search_terms=real%20estate%20companies&geo_location_terms=Cincinnati%2C%20OH&page=16,OH,(513) 561-5800,6901 Wooster Pike,45227,"Tesmer, Lisa"
,"Cincinnati, ",http://www.yellowpages.com/search?search_terms=real%20estate%20companies&geo_location_terms=Cincinnati%2C%20OH&page=16,OH,(513) 561-5800,6901 Wooster Pike,45227,"Trentman, Roberta"
,"Cincinnati, ",http://www.yellowpages.com/search?search_terms=real%20estate%20companies&geo_location_terms=Cincinnati%2C%20OH&page=16,OH,(513) 561-5800,6901 Wooster Pike,45227,"Behm, Chris"
,"Cincinnati, ",http://www.yellowpages.com/search?search_terms=real%20estate%20companies&geo_location_terms=Cincinnati%2C%20OH&page=16,OH,(513) 561-5800,6901 Wooster Pike,45227,"Castle, Annie"
,"Cincinnati, ",http://www.yellowpages.com/search?search_terms=real%20estate%20companies&geo_location_terms=Cincinnati%2C%20OH&page=16,OH,(513) 561-5800,6901 Wooster Pike,45227,"Pfingstag, Charlene"
,"Cincinnati, ",http://www.yellowpages.com/search?search_terms=real%20estate%20companies&geo_location_terms=Cincinnati%2C%20OH&page=16,OH,(513) 561-5800,6901 Wooster Pike,45227,"Stadler, John"
,"Cincinnati, ",http://www.yellowpages.com/search?search_terms=real%20estate%20companies&geo_location_terms=Cincinnati%2C%20OH&page=16,OH,(513) 561-5800,6901 Wooster Pike,45227,"Stapleton, Martin"
,"Cincinnati, ",http://www.yellowpages.com/search?search_terms=real%20estate%20companies&geo_location_terms=Cincinnati%2C%20OH&page=16,OH,(513) 561-5800,6901 Wooster Pike,45227,"Boettger, Cheryl"
,"Cincinnati, ",http://www.yellowpages.com/search?search_terms=real%20estate%20companies&geo_location_terms=Cincinnati%2C%20OH&page=16,OH,(513) 561-5800,6901 Wooster Pike,45227,"Destefano, Andrea"
,"Cincinnati, ",http://www.yellowpages.com/search?search_terms=real%20estate%20companies&geo_location_terms=Cincinnati%2C%20OH&page=16,OH,(513) 561-5800,6901 Wooster Pike,45227,"Filimonov, Theresa"
,"Cincinnati, ",http://www.yellowpages.com/search?search_terms=real%20estate%20companies&geo_location_terms=Cincinnati%2C%20OH&page=16,OH,(513) 561-5800,6901 Wooster Pike,45227,"Hickman, Ann"
,"Cincinnati, ",http://www.yellowpages.com/search?search_terms=real%20estate%20companies&geo_location_terms=Cincinnati%2C%20OH&page=16,OH,(513) 561-5800,6901 Wooster Pike,45227,"Hinkle III, Philip"
,"Cincinnati, ",http://www.yellowpages.com/search?search_terms=real%20estate%20companies&geo_location_terms=Cincinnati%2C%20OH&page=16,OH,(513) 561-5800,6901 Wooster Pike,45227,"Huhn, Carole"
,"Cincinnati, ",http://www.yellowpages.com/search?search_terms=real%20estate%20companies&geo_location_terms=Cincinnati%2C%20OH&page=16,OH,(513) 561-5800,6901 Wooster Pike,45227,"Huttenbauer Jr, Samuel"
,"Cincinnati, ",http://www.yellowpages.com/search?search_terms=real%20estate%20companies&geo_location_terms=Cincinnati%2C%20OH&page=16,OH,(513) 561-5800,6901 Wooster Pike,45227,"Mason, Linda"
,"Cincinnati, ",http://www.yellowpages.com/search?search_terms=real%20estate%20companies&geo_location_terms=Cincinnati%2C%20OH&page=16,OH,(513) 561-5800,6901 Wooster Pike,45227,"Plageman, Karen"
,"Cincinnati, ",http://www.yellowpages.com/search?search_terms=real%20estate%20companies&geo_location_terms=Cincinnati%2C%20OH&page=16,OH,(513) 561-5800,6901 Wooster Pike,45227,"Tipton, Terry"
,"Cincinnati, ",http://www.yellowpages.com/search?search_terms=real%20estate%20companies&geo_location_terms=Cincinnati%2C%20OH&page=16,OH,(513) 561-5800,6901 Wooster Pike,45227,"Baltis, Beth"
,"Cincinnati, ",http://www.yellowpages.com/search?search_terms=real%20estate%20companies&geo_location_terms=Cincinnati%2C%20OH&page=16,OH,(513) 561-5800,6901 Wooster Pike,45227,"Lehr, Susan"
,"Cincinnati, ",http://www.yellowpages.com/search?search_terms=real%20estate%20companies&geo_location_terms=Cincinnati%2C%20OH&page=16,OH,(513) 561-5800,6901 Wooster Pike,45227,"Boone, Sheri"
,"Cincinnati, ",http://www.yellowpages.com/search?search_terms=real%20estate%20companies&geo_location_terms=Cincinnati%2C%20OH&page=16,OH,(513) 561-5800,6901 Wooster Pike,45227,"Long, Darlene"
,"Cincinnati, ",http://www.yellowpages.com/search?search_terms=real%20estate%20companies&geo_location_terms=Cincinnati%2C%20OH&page=16,OH,(513) 561-5800,6901 Wooster Pike,45227,"Osterday, Mark"
,"Cincinnati, ",http://www.yellowpages.com/search?search_terms=real%20estate%20companies&geo_location_terms=Cincinnati%2C%20OH&page=16,OH,(513) 561-5800,6901 Wooster Pike,45227,"Robinson, Nicole"
,"Cincinnati, ",http://www.yellowpages.com/search?search_terms=real%20estate%20companies&geo_location_terms=Cincinnati%2C%20OH&page=16,OH,(513) 561-5800,6901 Wooster Pike,45227,"Vonasek, Daniel"
,"Cincinnati, ",http://www.yellowpages.com/search?search_terms=real%20estate%20companies&geo_location_terms=Cincinnati%2C%20OH&page=16,OH,(513) 561-5800,6901 Wooster Pike,45227,"Gregory, Kathleen"
http://www.sibcycline.com,"Cincinnati, ",http://www.yellowpages.com/search?search_terms=real%20estate%20companies&geo_location_terms=Cincinnati%2C%20OH&page=16,OH,(513) 985-4010,8044 Montgomery Rd,45236,"Gregory, Kathleen"
http://www.sibcycline.com,"Cincinnati, ",http://www.yellowpages.com/search?search_terms=real%20estate%20companies&geo_location_terms=Cincinnati%2C%20OH&page=16,OH,(513) 985-4010,8044 Montgomery Rd,45236,"Gregory, Kathleen"
,"Cincinnati, ",http://www.yellowpages.com/search?search_terms=real%20estate%20companies&geo_location_terms=Cincinnati%2C%20OH&page=17,OH,(513) 561-5800,6901 Wooster Pike,45227,"Oleson, Sherry"
,"Cincinnati, ",http://www.yellowpages.com/search?search_terms=real%20estate%20companies&geo_location_terms=Cincinnati%2C%20OH&page=17,OH,(513) 561-5800,6901 Wooster Pike,45227,"Ronto, Roscoe"
,"Cincinnati, ",http://www.yellowpages.com/search?search_terms=real%20estate%20companies&geo_location_terms=Cincinnati%2C%20OH&page=17,OH,(513) 561-5800,6901 Wooster Pike,45227,"Teggart, Michael"
,"Cincinnati, ",http://www.yellowpages.com/search?search_terms=real%20estate%20companies&geo_location_terms=Cincinnati%2C%20OH&page=17,OH,(513) 561-5800,6901 Wooster Pike,45227,"Simon, Scott"
,"Cincinnati, ",http://www.yellowpages.com/search?search_terms=real%20estate%20companies&geo_location_terms=Cincinnati%2C%20OH&page=17,OH,(513) 561-5800,6901 Wooster Pike,45227,"Stephens, Robert"
,"Cincinnati, ",http://www.yellowpages.com/search?search_terms=real%20estate%20companies&geo_location_terms=Cincinnati%2C%20OH&page=17,OH,(513) 561-5800,6901 Wooster Pike,45227,"Hopkins, Stephanie"
,"Cincinnati, ",http://www.yellowpages.com/search?search_terms=real%20estate%20companies&geo_location_terms=Cincinnati%2C%20OH&page=17,OH,(513) 561-5800,6901 Wooster Pike,45227,"Hunter, Elizabeth"
,"Cincinnati, ",http://www.yellowpages.com/search?search_terms=real%20estate%20companies&geo_location_terms=Cincinnati%2C%20OH&page=17,OH,(513) 561-5800,6901 Wooster Pike,45227,"Ziccardi, Kimberly"
,"Cincinnati, ",http://www.yellowpages.com/search?search_terms=real%20estate%20companies&geo_location_terms=Cincinnati%2C%20OH&page=17,OH,(513) 561-5800,6901 Wooster Pike,45227,"Breiel, Sara"
,"Cincinnati, ",http://www.yellowpages.com/search?search_terms=real%20estate%20companies&geo_location_terms=Cincinnati%2C%20OH&page=17,OH,(513) 561-5800,6901 Wooster Pike,45227,"Gerbus, Deborah"
,"Cincinnati, ",http://www.yellowpages.com/search?search_terms=real%20estate%20companies&geo_location_terms=Cincinnati%2C%20OH&page=17,OH,(513) 561-5800,6901 Wooster Pike,45227,"Cobb, Marne"
,"Cincinnati, ",http://www.yellowpages.com/search?search_terms=real%20estate%20companies&geo_location_terms=Cincinnati%2C%20OH&page=17,OH,(513) 561-5800,6901 Wooster Pike,45227,"Koehler, Sandra"
,"Cincinnati, ",http://www.yellowpages.com/search?search_terms=real%20estate%20companies&geo_location_terms=Cincinnati%2C%20OH&page=17,OH,(513) 561-5800,6901 Wooster Pike,45227,"Beebe, Lawrence"
,"Cincinnati, ",http://www.yellowpages.com/search?search_terms=real%20estate%20companies&geo_location_terms=Cincinnati%2C%20OH&page=17,OH,(513) 561-5800,6901 Wooster Pike,45227,"Eilers, Janice"
,"Cincinnati, ",http://www.yellowpages.com/search?search_terms=real%20estate%20companies&geo_location_terms=Cincinnati%2C%20OH&page=17,OH,(513) 561-5800,6901 Wooster Pike,45227,"Hockett, Gary"
,"Cincinnati, ",http://www.yellowpages.com/search?search_terms=real%20estate%20companies&geo_location_terms=Cincinnati%2C%20OH&page=17,OH,(513) 561-5800,6901 Wooster Pike,45227,"Rais, Douglas"
,"Cincinnati, ",http://www.yellowpages.com/search?search_terms=real%20estate%20companies&geo_location_terms=Cincinnati%2C%20OH&page=17,OH,(513) 561-5800,6901 Wooster Pike,45227,"Godfrey, Cynthia"
,"Cincinnati, ",http://www.yellowpages.com/search?search_terms=real%20estate%20companies&geo_location_terms=Cincinnati%2C%20OH&page=17,OH,(513) 561-5800,6901 Wooster Pike,45227,"Kearns, Karen"
,"Cincinnati, ",http://www.yellowpages.com/search?search_terms=real%20estate%20companies&geo_location_terms=Cincinnati%2C%20OH&page=17,OH,(513) 561-5800,6901 Wooster Pike,45227,"Schlanser, Lynn"
,"Cincinnati, ",http://www.yellowpages.com/search?search_terms=real%20estate%20companies&geo_location_terms=Cincinnati%2C%20OH&page=17,OH,(513) 561-5800,6901 Wooster Pike,45227,"Andrews, Thomas"
,"Cincinnati, ",http://www.yellowpages.com/search?search_terms=real%20estate%20companies&geo_location_terms=Cincinnati%2C%20OH&page=17,OH,(513) 561-3514,6989 Bramble Hill Dr,45227,Corporate Real Est Advisors
http://cbre.com,"Cincinnati, ",http://www.yellowpages.com/search?search_terms=real%20estate%20companies&geo_location_terms=Cincinnati%2C%20OH&page=17,OH,(513) 369-1300,201 E 5th St # 1200,45202,"Whitten, Douglas"
http://cbre.com,"Cincinnati, ",http://www.yellowpages.com/search?search_terms=real%20estate%20companies&geo_location_terms=Cincinnati%2C%20OH&page=17,OH,(513) 381-1000,895 Central Ave,45202,Citimark Managmt
http://www.thyssenkruppelevator.com,"Cincinnati, ",http://www.yellowpages.com/search?search_terms=real%20estate%20companies&geo_location_terms=Cincinnati%2C%20OH&page=17,OH,(513) 792-2955,8044 Montgomery Rd,45236,Visa Usa Inc
http://www.thyssenkruppelevator.com,"Cincinnati, ",http://www.yellowpages.com/search?search_terms=real%20estate%20companies&geo_location_terms=Cincinnati%2C%20OH&page=17,OH,(513) 984-0800,8044 Montgomery Rd Ste 242,45236,Brandt Retail Group Inc
http://www.thyssenkruppelevator.com,"Cincinnati, ",http://www.yellowpages.com/search?search_terms=real%20estate%20companies&geo_location_terms=Cincinnati%2C%20OH&page=17,OH,(513) 381-4176,1017 Hopkins St,45203,S & R Management Inc
http://www.thyssenkruppelevator.com,"Cincinnati, ",http://www.yellowpages.com/search?search_terms=real%20estate%20companies&geo_location_terms=Cincinnati%2C%20OH&page=17,OH,(513) 621-1384,7811 Laurel Ave # B,45243,Riverside Corp
http://www.dotloop.com,"Cincinnati, ",http://www.yellowpages.com/search?search_terms=real%20estate%20companies&geo_location_terms=Cincinnati%2C%20OH&page=17,OH,(513) 257-0550,700 W Pete Rose Way Ste 436,45203,Dotloop
http://www.wattsandwattsentrepreneur.com,"Cincinnati, ",http://www.yellowpages.com/search?search_terms=real%20estate%20companies&geo_location_terms=Cincinnati%2C%20OH&page=17,OH,(513) 550-6159,1714 Cedar Ave,45224,Watts & Watts Entrepreneurs
http://www.wattsandwattsentrepreneur.com,"Cincinnati, ",http://www.yellowpages.com/search?search_terms=real%20estate%20companies&geo_location_terms=Cincinnati%2C%20OH&page=17,OH,(513) 681-5510,2992 High Forest Ln,45223,Berkshire Realty Group
http://www.sibcycline.com,"Cincinnati, ",http://www.yellowpages.com/search?search_terms=real%20estate%20companies&geo_location_terms=Cincinnati%2C%20OH&page=17,OH,(513) 985-4010,8044 Montgomery Rd,45236,Berkshire Realty Group
http://www.sibcycline.com,"Cincinnati, ",http://www.yellowpages.com/search?search_terms=real%20estate%20companies&geo_location_terms=Cincinnati%2C%20OH&page=17,OH,(513) 985-4010,8044 Montgomery Rd,45236,Berkshire Realty Group
,"Cincinnati, ",http://www.yellowpages.com/search?search_terms=real%20estate%20companies&geo_location_terms=Cincinnati%2C%20OH&page=18,OH,(513) 521-4433,348 Grove Rd,45215,"Schutte, Ronald"
http://raybrownproperties.com,"Cincinnati, ",http://www.yellowpages.com/search?search_terms=real%20estate%20companies&geo_location_terms=Cincinnati%2C%20OH&page=18,OH,(513) 451-5616,2488 River Rd,45204,Brown Properties
http://raybrownproperties.com,"Cincinnati, ",http://www.yellowpages.com/search?search_terms=real%20estate%20companies&geo_location_terms=Cincinnati%2C%20OH&page=18,OH,(513) 771-9555,135 Merchant St Ste 100,45246,T I C Properties
http://cincomsmalltalk.com,"Cincinnati, ",http://www.yellowpages.com/search?search_terms=real%20estate%20companies&geo_location_terms=Cincinnati%2C%20OH&page=18,OH,(513) 612-4400,55 Merchant St,45246,NBank Mortgage
http://cincomsmalltalk.com,"Cincinnati, ",http://www.yellowpages.com/search?search_terms=real%20estate%20companies&geo_location_terms=Cincinnati%2C%20OH&page=18,OH,(513) 772-5438,11499 Chester Rd,45246,Chester Towers
http://cincomsmalltalk.com,"Cincinnati, ",http://www.yellowpages.com/search?search_terms=real%20estate%20companies&geo_location_terms=Cincinnati%2C%20OH&page=18,OH,(513) 385-0100,3567 Blue Rock Rd,45247,Gemini Endeavors Inc
http://cincomsmalltalk.com,"Cincinnati, ",http://www.yellowpages.com/search?search_terms=real%20estate%20companies&geo_location_terms=Cincinnati%2C%20OH&page=18,OH,(513) 741-8661,4208 Pictureview Ln,45247,York Venture
http://cincomsmalltalk.com,"Cincinnati, ",http://www.yellowpages.com/search?search_terms=real%20estate%20companies&geo_location_terms=Cincinnati%2C%20OH&page=18,OH,(513) 688-1234,4858 Powderhorn Dr,45244,Home Listing Svc
http://www.joecookrealestate.com,"Cincinnati, ",http://www.yellowpages.com/search?search_terms=real%20estate%20companies&geo_location_terms=Cincinnati%2C%20OH&page=18,OH,(513) 474-4800,8145 Beechmont Ave,45255,Joe Cook Real Estate
http://www.managementplusrealtyservice.com/villagesofng/home.asp,"Cincinnati, ",http://www.yellowpages.com/search?search_terms=real%20estate%20companies&geo_location_terms=Cincinnati%2C%20OH&page=18,OH,(513) 385-0936,3500 Commons Cir,45251,Villages Of Northgate
http://www.managementplusrealtyservice.com/villagesofng/home.asp,"Cincinnati, ",http://www.yellowpages.com/search?search_terms=real%20estate%20companies&geo_location_terms=Cincinnati%2C%20OH&page=18,OH,(513) 891-3948,8176 Beechmont Ave,45255,Miles Home Team
http://midlandretail.com,"Cincinnati, ",http://www.yellowpages.com/search?search_terms=real%20estate%20companies&geo_location_terms=Cincinnati%2C%20OH&page=18,OH,(513) 891-2526,6125 E Kemper Rd Ste 100,45241,Midland Retail
http://sequelsauction.com,"Cincinnati, ",http://www.yellowpages.com/search?search_terms=real%20estate%20companies&geo_location_terms=Cincinnati%2C%20OH&page=18,OH,(513) 706-2053,8315 Beechmont Ave # 32,45255,Buy Fix Sell Co
http://sequelsauction.com,"Cincinnati, ",http://www.yellowpages.com/search?search_terms=real%20estate%20companies&geo_location_terms=Cincinnati%2C%20OH&page=18,OH,(513) 382-5700,11013 Montgomery Rd,45249,Yrj Real Estate Svc
http://sequelsauction.com,"Cincinnati, ",http://www.yellowpages.com/search?search_terms=real%20estate%20companies&geo_location_terms=Cincinnati%2C%20OH&page=18,OH,(513) 247-0238,11085 Montgomery Rd,45249,M P Hines Co Inc
http://sequelsauction.com,"Cincinnati, ",http://www.yellowpages.com/search?search_terms=real%20estate%20companies&geo_location_terms=Cincinnati%2C%20OH&page=18,OH,(513) 772-7784,11800 Conrey Rd Ste 120,45249,Blue Rock Midwest
http://www.comey.com,"Cincinnati, ",http://www.yellowpages.com/search?search_terms=real%20estate%20companies&geo_location_terms=Cincinnati%2C%20OH&page=18,OH,(513) 512-8651,7870 E Kemper Rd,45249,Comey & Shepherd Realtors/Ruth Flath
http://www.comey.com,"Cincinnati, ",http://www.yellowpages.com/search?search_terms=real%20estate%20companies&geo_location_terms=Cincinnati%2C%20OH&page=18,OH,(513) 489-2100,7870 E Kemper Rd,45249,"Pottschmidt, Dabney"
http://www.cincinnatirentalproperties.com,"Cincinnati, ",http://www.yellowpages.com/search?search_terms=real%20estate%20companies&geo_location_terms=Cincinnati%2C%20OH&page=18,OH,(513) 509-2076,7870 E Kemper Rd Ste 100,45249,Cincinnati Rental Properties
http://www.cincinnatirentalproperties.com,"Cincinnati, ",http://www.yellowpages.com/search?search_terms=real%20estate%20companies&geo_location_terms=Cincinnati%2C%20OH&page=18,OH,(513) 607-1986,5981 Harrison Ave # 4,45248,3 Blondes Realty
http://www.cincinnatirentalproperties.com,"Cincinnati, ",http://www.yellowpages.com/search?search_terms=real%20estate%20companies&geo_location_terms=Cincinnati%2C%20OH&page=18,OH,(513) 922-6911,6057 Eden Place Dr,45247,HJH Realty Corp
http://www.cincinnatirentalproperties.com,"Cincinnati, ",http://www.yellowpages.com/search?search_terms=real%20estate%20companies&geo_location_terms=Cincinnati%2C%20OH&page=18,OH,(513) 469-0012,11502 Village Brook Dr Apt 225,45249,Babcock & Brown
http://www.cincinnatirentalproperties.com,"Cincinnati, ",http://www.yellowpages.com/search?search_terms=real%20estate%20companies&geo_location_terms=Cincinnati%2C%20OH&page=18,OH,(513) 922-5333,6363 Werk Rd,45248,Welcome Home Unpacking
http://www.cincinnatirentalproperties.com,"Cincinnati, ",http://www.yellowpages.com/search?search_terms=real%20estate%20companies&geo_location_terms=Cincinnati%2C%20OH&page=18,OH,(513) 444-2121,9435 Waterstone Blvd,45249,Process Pro
http://www.cincinnatirentalproperties.com,"Cincinnati, ",http://www.yellowpages.com/search?search_terms=real%20estate%20companies&geo_location_terms=Cincinnati%2C%20OH&page=18,OH,(513) 317-3694,9435 Waterstone Blvd,45238,J L Realty
http://www.cincymls.com,"Cincinnati, ",http://www.yellowpages.com/search?search_terms=real%20estate%20companies&geo_location_terms=Cincinnati%2C%20OH&page=18,OH,(513) 761-8861,9435 Waterstone Blvd,45237,Multiple Listing Svc Inc
http://www.cincymls.com,"Cincinnati, ",http://www.yellowpages.com/search?search_terms=real%20estate%20companies&geo_location_terms=Cincinnati%2C%20OH&page=18,OH,(855) 879-6484,9435 Waterstone Blvd,45224,Real Value Management
http://amig.com,"Cincinnati, ",http://www.yellowpages.com/search?search_terms=real%20estate%20companies&geo_location_terms=Cincinnati%2C%20OH&page=18,OH,(513) 947-5567,9435 Waterstone Blvd,45201,Wright Mary
http://amig.com,"Cincinnati, ",http://www.yellowpages.com/search?search_terms=real%20estate%20companies&geo_location_terms=Cincinnati%2C%20OH&page=18,OH,(513) 574-2300,6470 Harrison Ave,45247,Huff Realty Inc
http://amig.com,"Cincinnati, ",http://www.yellowpages.com/search?search_terms=real%20estate%20companies&geo_location_terms=Cincinnati%2C%20OH&page=18,OH,(513) 541-0593,4100 Rev Dr,45232,Rev Realty
http://www.sibcycline.com,"Cincinnati, ",http://www.yellowpages.com/search?search_terms=real%20estate%20companies&geo_location_terms=Cincinnati%2C%20OH&page=18,OH,(513) 985-4010,8044 Montgomery Rd,45236,Rev Realty
http://www.sibcycline.com,"Cincinnati, ",http://www.yellowpages.com/search?search_terms=real%20estate%20companies&geo_location_terms=Cincinnati%2C%20OH&page=18,OH,(513) 985-4010,8044 Montgomery Rd,45236,Rev Realty
http://www.federleinc.com,"Cincinnati, ",http://www.yellowpages.com/search?search_terms=real%20estate%20companies&geo_location_terms=Cincinnati%2C%20OH&page=19,OH,(513) 851-4021,12116 Kilbride Dr,45251,Federle Realtors
http://www.buntonrealestate.com,"Cincinnati, ",http://www.yellowpages.com/search?search_terms=real%20estate%20companies&geo_location_terms=Cincinnati%2C%20OH&page=19,OH,(513) 825-1000,787 Northland Blvd Apt B,45240,The Bunton Real Estate Co
http://www.remax.com,"Cincinnati, ",http://www.yellowpages.com/search?search_terms=real%20estate%20companies&geo_location_terms=Cincinnati%2C%20OH&page=19,OH,(513) 761-4030,401 Crescent Ave,45215,Re Max
http://www.sibcycline.com,"Cincinnati, ",http://www.yellowpages.com/search?search_terms=real%20estate%20companies&geo_location_terms=Cincinnati%2C%20OH&page=19,OH,(513) 381-3338,212 E 6th St,45202,Sibcy Cline Realtors - Metropolitan
http://www.thiemannrealtors.com,"Cincinnati, ",http://www.yellowpages.com/search?search_terms=real%20estate%20companies&geo_location_terms=Cincinnati%2C%20OH&page=19,OH,(513) 922-2600,5981 Harrison Ave,45248,Thiemann Realtor
http://www.thiemannrealtors.com,"Cincinnati, ",http://www.yellowpages.com/search?search_terms=real%20estate%20companies&geo_location_terms=Cincinnati%2C%20OH&page=19,OH,(513) 421-1594,134 E Mills Ave,45215,Hanish Realty
http://leistrealtors.com,"Cincinnati, ",http://www.yellowpages.com/search?search_terms=real%20estate%20companies&geo_location_terms=Cincinnati%2C%20OH&page=19,OH,(513) 794-7444,4677 Cooper Rd,45242,Leist Henry A Inc
http://www.onlineachieve.com,"Cincinnati, ",http://www.yellowpages.com/search?search_terms=real%20estate%20companies&geo_location_terms=Cincinnati%2C%20OH&page=19,OH,(513) 891-9300,9560 Montgomery Rd Ste 100,45242,Nextage Achieve Realty
http://cbre.com,"Cincinnati, ",http://www.yellowpages.com/search?search_terms=real%20estate%20companies&geo_location_terms=Cincinnati%2C%20OH&page=19,OH,(513) 772-6708,25 Merchant St Ste 130,45246,CB Richard Ellis
http://strietmannrealty.com,"Cincinnati, ",http://www.yellowpages.com/search?search_terms=real%20estate%20companies&geo_location_terms=Cincinnati%2C%20OH&page=19,OH,(513) 535-7934,3411 Michigan Ave,45208,Strietmann Realty Inc
http://strietmannrealty.com,"Cincinnati, ",http://www.yellowpages.com/search?search_terms=real%20estate%20companies&geo_location_terms=Cincinnati%2C%20OH&page=19,OH,(513) 834-9300,1821 Summit Rd Ste 114,45237,Mid City Partners
http://www.castoinfo.com,"Cincinnati, ",http://www.yellowpages.com/search?search_terms=real%20estate%20companies&geo_location_terms=Cincinnati%2C%20OH&page=19,OH,(513) 936-8568,8280 Montgomery Rd Ste 303,45236,Casto
http://www.remax.com,"Cincinnati, ",http://www.yellowpages.com/search?search_terms=real%20estate%20companies&geo_location_terms=Cincinnati%2C%20OH&page=19,OH,(513) 792-0535,9563 Montgomery Rd Ste 4,45242,Re/Max
http://huff.com,"Cincinnati, ",http://www.yellowpages.com/search?search_terms=real%20estate%20companies&geo_location_terms=Cincinnati%2C%20OH&page=19,OH,(513) 825-9200,375 Glensprings Dr,45246,Huff Realty Inc
http://huff.com,"Cincinnati, ",http://www.yellowpages.com/search?search_terms=real%20estate%20companies&geo_location_terms=Cincinnati%2C%20OH&page=19,OH,(513) 574-9100,6210 Glenway Ave,45211,Krone Allen W Real Est
http://kenkocorp.com,"Cincinnati, ",http://www.yellowpages.com/search?search_terms=real%20estate%20companies&geo_location_terms=Cincinnati%2C%20OH&page=19,OH,(513) 533-1434,3449 Michigan Ave Ste 4,45208,Kenko Corp
http://www.domicilerealtors.com,"Cincinnati, ",http://www.yellowpages.com/search?search_terms=real%20estate%20companies&geo_location_terms=Cincinnati%2C%20OH&page=19,OH,(513) 761-6800,1530 Seymour Ave,45237,Domicile Realtors
http://www.domicilerealtors.com,"Cincinnati, ",http://www.yellowpages.com/search?search_terms=real%20estate%20companies&geo_location_terms=Cincinnati%2C%20OH&page=19,OH,(513) 281-5555,2828 Vine Stunit 1,45219,Benjamin J Allen Realty
http://www.hprp.com,"Cincinnati, ",http://www.yellowpages.com/search?search_terms=real%20estate%20companies&geo_location_terms=Cincinnati%2C%20OH&page=19,OH,(513) 271-4241,3360 Red Bank Rd,45227,Mills Judy Co
http://www.hprp.com,"Cincinnati, ",http://www.yellowpages.com/search?search_terms=real%20estate%20companies&geo_location_terms=Cincinnati%2C%20OH&page=19,OH,(513) 721-1902,316 Reading Rd,45202,Asto Realty
http://www.hprp.com,"Cincinnati, ",http://www.yellowpages.com/search?search_terms=real%20estate%20companies&geo_location_terms=Cincinnati%2C%20OH&page=19,OH,(513) 621-2480,432 Walnut St,45202,Neyer Real EST Managmt
http://www.cooper-co.com,"Cincinnati, ",http://www.yellowpages.com/search?search_terms=real%20estate%20companies&geo_location_terms=Cincinnati%2C%20OH&page=19,OH,(513) 248-8350,5050 E Galbraith Rd Ste B,45236,Cooper Myers Y Co
http://www.grouprealtors.com,"Cincinnati, ",http://www.yellowpages.com/search?search_terms=real%20estate%20companies&geo_location_terms=Cincinnati%2C%20OH&page=19,OH,(513) 985-2100,8050 Montgomery Rd Ste 203,45236,Group Realtors
http://www.grouprealtors.com,"Cincinnati, ",http://www.yellowpages.com/search?search_terms=real%20estate%20companies&geo_location_terms=Cincinnati%2C%20OH&page=19,OH,(513) 729-2274,2812 Saddleback Dr,45244,Advantage Home Buyers Inc
http://ownerlandrealty.com,"Cincinnati, ",http://www.yellowpages.com/search?search_terms=real%20estate%20companies&geo_location_terms=Cincinnati%2C%20OH&page=19,OH,(513) 896-1200,230 Northland Blvd Ste 215,45246,Ownerland Realty
http://www.househuntersre.com,"Cincinnati, ",http://www.yellowpages.com/search?search_terms=real%20estate%20companies&geo_location_terms=Cincinnati%2C%20OH&page=19,OH,(513) 851-5353,11844 Glenfalls Ct,45246,House Hunters
http://www.jessicabauer.com,"Cincinnati, ",http://www.yellowpages.com/search?search_terms=real%20estate%20companies&geo_location_terms=Cincinnati%2C%20OH&page=19,OH,(513) 489-2100,7870 E Kemper Rd Ste 100,45249,Comey & Shepherd Realtors
http://www.jessicabauer.com,"Cincinnati, ",http://www.yellowpages.com/search?search_terms=real%20estate%20companies&geo_location_terms=Cincinnati%2C%20OH&page=19,OH,(513) 602-0751,2635 Highland Ave # 1,45219,Stiens Real Estate Investment
http://www.jessicabauer.com,"Cincinnati, ",http://www.yellowpages.com/search?search_terms=real%20estate%20companies&geo_location_terms=Cincinnati%2C%20OH&page=19,OH,(513) 861-4946,2108 Fulton Ave,45206,L M Real Estate
http://www.eaglerealtygroup.com,"Cincinnati, ",http://www.yellowpages.com/search?search_terms=real%20estate%20companies&geo_location_terms=Cincinnati%2C%20OH&page=19,OH,(513) 361-4000,301 E 4th St Ste 3410,45202,Eagle Realty
http://www.sibcycline.com,"Cincinnati, ",http://www.yellowpages.com/search?search_terms=real%20estate%20companies&geo_location_terms=Cincinnati%2C%20OH&page=19,OH,(513) 985-4010,8044 Montgomery Rd,45236,Eagle Realty
http://www.sibcycline.com,"Cincinnati, ",http://www.yellowpages.com/search?search_terms=real%20estate%20companies&geo_location_terms=Cincinnati%2C%20OH&page=19,OH,(513) 985-4010,8044 Montgomery Rd,45236,Eagle Realty
